cai_type,cai_subtype,name,address,city,state,zip,island,county,latitude,longitude
Community Support,Alu Like,Alu Like - Kaunakakai,10 Mohala Street,Kaunakakai,HI,96748,Hawaii,Hawaii,21.08884499,-157.0209407
Community Support,Alu Like,Alu Like - Hale O Na Limahana,2969 Mapunapuna Place Suite 200,Honolulu,HI,96819,Oahu,Honolulu,21.33906582,-157.900707
Community Support,Alu Like,Alu Like - Lihue,2970 Kele Street Suite 116,Lihue,HI,96766,Kauai,Kauai,21.97393536,-159.368816
Community Support,Alu Like,Alu Like - Wailuku,95 Mahalani Street Suite 28-1B,Wailuku,HI,96793,Maui,Maui,20.88693706,-156.4883045
Community Support,Alu Like,Alu Like - Hilo,32 Kinoole Street #102,Hilo,HI,96720,Molokai,Maui,19.72560023,-155.0896615
Community Support,Community Media Center,Na Leo o Hawai'i,91 Mohouli Street,Hilo,HI,96720,Hawaii,Hawaii,19.71195504,-155.0797337
Community Support,Community Media Center,Olelo Community Media - Kaimuki,2705 Kaimuki Avenue Building K,Honolulu,HI,96816,Oahu,Honolulu,21.28597749,-157.817598
Community Support,Community Media Center,Olelo Community Media - Kaneohe,46-155 Kamehameha Highway Bldg G Rm 2,Kaneohe,HI,96744,Oahu,Honolulu,21.42906908,-157.8062948
Community Support,Community Media Center,Olelo Community Media - Wahiawa,1515 California Ave Building EE-107,Wahiawa,HI,96786,Oahu,Honolulu,21.50211794,-158.013402
Community Support,Community Media Center,Olelo Community Media - Waipahu,94-455 Farrington Highway,Waipahu,HI,96797,Oahu,Honolulu,21.38109898,-158.0130978
Community Support,Community Media Center,Hoike Kauai Community Television,4318 Rice Street,Lihue,HI,96766,Kauai,Kauai,21.9732611,-159.3657614
Community Support,Community Media Center,Akaku Maui Community Media - Kahului,333 Dairy Rd Suite 104,Kahului,HI,96732,Maui,Maui,20.88350402,-156.4547004
Community Support,Community Media Center,Akaku Maui Community Media - Molokai,40 Ala Malama Ave #209,Kaunakakai,HI,96748,Molokai,Maui,21.0900337,-157.0219029
Community Support,Houseless Support,Hale Mauiola,10 Sand Island Parkway,Honolulu,HI,96819,Oahu,Honolulu,21.31269286,-157.8882625
Community Support,Houseless Support,Institute for Human Services - Kaaahi Service Center,546 Kaaahi Street,Honolulu,HI,96817,Oahu,Honolulu,21.31782028,-157.8660834
Community Support,Houseless Support,Institute for Human Services - Kaamahu Service Center,916 Kaamahu Place,Honolulu,HI,96817,Oahu,Honolulu,21.3178601,-157.8656882
Community Support,Houseless Support,Institute for Human Services - Sumner Service Center,350 Sumner Street,Honolulu,HI,96817,Oahu,Honolulu,21.31563152,-157.8675684
Community Support,Houseless Support,Kahauiki Village,2475 N Nimitz Hwy,Honolulu,HI,96819,Oahu,Honolulu,21.33219866,-157.8916188
Community Support,Liliuokalani Trust,Kipuka Hilo,919 Ululani St,Hilo,HI,96720,Hawaii,Hawaii,19.71610489,-155.0843139
Community Support,Liliuokalani Trust,Kipuka Kona,74-5490 Makala Blvd,Kailua-Kona,HI,96740,Hawaii,Hawaii,19.65091001,-156.0092779
Community Support,Liliuokalani Trust,Kipuka Koolau Poko,46-316 Haiku Road,Kaneohe,HI,96744,Oahu,Honolulu,21.41535555,-157.8140261
Community Support,Liliuokalani Trust,Kipuka Leihano,891 Kamaaha Ave Suite 101,Kapolei,HI,96707,Oahu,Honolulu,21.33337971,-158.0766742
Community Support,Liliuokalani Trust,Kipuka Waianae,87-1876 Farrington Hwy,Waianae,HI,96792,Oahu,Honolulu,21.39063693,-158.1549046
Community Support,Liliuokalani Trust,Liliuokalani Center,932 Ward Ave,Honolulu,HI,96814,Oahu,Honolulu,21.30177615,-157.8509249
Community Support,Liliuokalani Trust,LT Waimanalo,41-245 Ilauhole St,Waimanalo,HI,96795,Oahu,Honolulu,21.33101416,-157.6990556
Community Support,Liliuokalani Trust,Lydia House,205 South Vineyard St,Honolulu,HI,96813,Oahu,Honolulu,21.31093925,-157.8559395
Community Support,Liliuokalani Trust,Kipuka Kauai,4530 Kali Road,Lihue,HI,96766,Kauai,Kauai,21.97924771,-159.3691682
Community Support,Liliuokalani Trust,Kipuka Hana,1501 Uakea Road,Hana,HI,96713,Maui,Maui,20.75388266,-155.9841626
Community Support,Liliuokalani Trust,Kipuka Maui,1791 Wili Pa Loop,Wailuku,HI,96793,Maui,Maui,20.89230267,-156.5011641
Community Support,Liliuokalani Trust,LT Pukalani,3390 Old Haleakala Hwy,Makawao,HI,96768,Maui,Maui,20.83479785,-156.3357836
Community Support,Liliuokalani Trust,Kipuka Molokai,600 Maunaloa Hwy Bldg D3,Kaunakakai,HI,96748,Molokai,Maui,21.09681464,-157.0350798
Community Support,American Job Center,American Job Center Hawaii - Hawaii Island,88 Kanoelehua Avenue Waiakea Kai Plaza Suite A-24,Hilo,HI,96720,Hawaii,Hawaii,19.72178546,-155.064569
Community Support,American Job Center,American Job Center Hawaii - Oahu,680 Iwilei Road Suite 700,Honolulu,HI,96817,Oahu,Honolulu,21.31680312,-157.870368
Community Support,American Job Center,Maui County Business Resource Center,110 Alaihi St #209,Kahului,HI,96732,Maui,Maui,20.87772664,-156.4501827
Community Support,American Job Center,WorkSource Molokai,55 Makaena Pl Room 4,Kaunakakai,HI,96748,Molokai,Maui,21.09086385,-157.0225815
Community Support,American Job Center,American Job Center Hawaii - Kauai,4444 Rice St Suite 302,Lihue,HI,96766,Kauai,Kauai,21.97627029,-159.3694178
Community Support,Houseless Shelter,Kauai Humane Society,3-825 Kaumualii Hwy,Lihue,HI,96766,Kauai,Kauai,21.96476479,-159.4213571
Community Support,,Honolulu Community Action Program - Central,99-102 Kalaloa St,Aiea,HI,96701,Oahu,Honolulu,21.36690661,-157.9344674
Community Support,,Honolulu Community Action Program - Kalihi-Palama,1555 Haka Dr Unit 2408,Honolulu,HI,96817,Oahu,Honolulu,21.3290626,-157.8751668
Community Support,,Honolulu Community Action Program - Leahi,1915 Palolo Avenue,Honolulu,HI,96819,Oahu,Honolulu,21.29841715,-157.7976682
Community Support,,Honolulu Community Action Program - Leeward,85-555 Farrington Highway,Waianae,HI,96792,Oahu,Honolulu,21.45180194,-158.1943078
Community Support,,Honolulu Community Action Program - Windward,47-232 Waihee Road,Kaneohe,HI,96744,Oahu,Honolulu,21.45767998,-157.844615
Community Support,,Ko'olauloa Foundation,53-100 Puhuli Street,Hauula,HI,96717,Oahu,Honolulu,21.59205206,-157.9005875
Community Support,,Neighborhood Place of Puna,16-105 Opukahaia St,Keaau,HI,96749,Hawaii,Hawaii,19.60505293,-155.0272227
Community Support,,Seaview Performing Arts Center for Education (SPACE),12-253 Pohakupele Loop,Pahoa,HI,96778,Hawaii,Hawaii,19.40872804,-154.9275772
Community Support,,Hui Malama i ke Ala Ulili (huiMAU),43-1355 Mamalahoa Hwy,Paauilo,HI,96776,Hawaii,Hawaii,20.03915454,-155.3687367
Community Support,,Olelo Community Media - Main Office,1122 Mapunapuna St,Honolulu,HI,96819,Oahu,Honolulu,21.34694729,-157.8971883
Community Support,,Wahiawa Value-Added Product Development Center (WVAPDC),,,HI,,Oahu,Honolulu,,
Community Support,,Institute for Human Services - Imi Ola Piha Triage Center,,,HI,,Oahu,Honolulu,,
Community Center,,Aunty Sally Kaleohano's Luau Hale,799 Piilani Street,Hilo,HI,96720,Hawaii,Hawaii,19.71669775,-155.0664743
Community Center,,Aupuni Center,101 Pauahi Street Suite 6,Hilo,HI,96720,Hawaii,Hawaii,19.71829326,-155.0792794
Community Center,,Cooper Center,19-4030 Wright Road,Volcano,HI,96785,Hawaii,Hawaii,19.4342395,-155.2303737
Community Center,,Kailua Park,75-5500 Kuakini Hwy ,Kailua-Kona,HI,96745,Hawaii,Hawaii,19.64082296,-156.0026747
Community Center,,Keaau Community Center,16-186 Pili Mua St,Keaau,HI,96749,Hawaii,Hawaii,19.62024607,-155.0391394
Community Center,,Kulaimano Community Center,28-2891 Alia St,Pepeekeo,HI,96783,Hawaii,Hawaii,19.83485911,-155.1069278
Community Center,,Mountain View Community Center,18-1345 A Volcano Rd,Mountain View,HI,96771,Hawaii,Hawaii,19.54856077,-155.1079676
Community Center,,Naalehu Community Center,95-5635 Mamalahoa Hwy,Naalehu,HI,96772,Hawaii,Hawaii,19.0602215,-155.5853052
Community Center,,Pahala Community Center,96-1149 Kamani St,Pahala,HI,96777,Hawaii,Hawaii,19.2011022,-155.4736198
Community Center,,Pahoa Neighborhood Center,15-2906 Pahoa Village Rd,Pahoa,HI,96778,Hawaii,Hawaii,19.4935614,-154.9464202
Community Center,,Papaaloa Community Center Gym,35-1994 Old Mamalahoa Hwy,Laupahoehoe,HI,96764,Hawaii,Hawaii,19.97571192,-155.2172825
Community Center,,Papaikou Community Center,27 Maluna Pl,Papaikou,HI,96781,Hawaii,Hawaii,19.7876329,-155.0945065
Community Center,,Puueo Community Center,145 Wainaku St,Hilo,HI,96720,Hawaii,Hawaii,19.72886439,-155.0922067
Community Center,,Waiakea Recreation Center,1634 Kamehameha Ave,Hilo,HI,96720,Hawaii,Hawaii,19.7222784,-155.0659895
Community Center,,Waimea Community Center,65-1260 Kawaihae Rd,Waimea,HI,96743,Hawaii,Hawaii,20.0225908,-155.6725972
Community Center,,West Hawaii Civic Center,74-5044 Ane Keohokalole Hwy,Kailua-Kona,HI,96740,Hawaii,Hawaii,19.67390301,-156.0039195
Community Center,,Filipino Community Center,94-428 Mokuola Street Suite 302,Waipahu,HI,96797,Oahu,Honolulu,21.38722911,-158.0060936
Community Center,,Harry and Jeanette Weinberg Ho'okupu Center,677 Ala Moana Blvd Suite 1200,Honolulu,HI,96813,Oahu,Honolulu,21.29130522,-157.8586272
Community Center,,Moiliili Community Center,2535 South King St,Honolulu,HI,96826,Oahu,Honolulu,21.29205883,-157.822783
Community Center,,Momilani Community Center,715 Hoomoana St,Pearl City,HI,96782,Oahu,Honolulu,21.40909086,-157.9599865
Community Center,,Susannah Wesley Community Center,1117 Kaili Street,Honolulu,HI,96819,Oahu,Honolulu,21.332601,-157.8754685
Community Center,,Waianae Community Neighborhood Community Center,85-670 Farrington Hwy,Waianae,HI,96792,Oahu,Honolulu,21.44989173,-158.190592
Community Center,,Waikiki Community Center,310 Paoakalani Ave,Honolulu,HI,96815,Oahu,Honolulu,21.27525041,-157.8202459
Community Center,,Hanalei Neighborhood Center,5-5358 Kuhio Hwy,Hanalei,HI,96714,Kauai,Kauai,22.20175023,-159.5010033
Community Center,,Hanapepe Neighborhood Center,4451 Puolo Road,Hanapepe,HI,96716,Kauai,Kauai,21.9055447,-159.5942809
Community Center,,Kalaheo Neighborhood Center,4480 Papalina Road,Kalaheo,HI,96741,Kauai,Kauai,21.924988,-159.5266594
Community Center,,Kapaa Neighborhood Center,4491 Kou Street,Kapaa,HI,96746,Kauai,Kauai,22.0797819,-159.3139562
Community Center,,Kauai War Memorial Convention Hall,4191 Hardy St,Lihue,HI,96766,Kauai,Kauai,21.97340598,-159.3640764
Community Center,,Kaumakani Neighborhood Center,2301 Kaumakani Road,Kaumakani,HI,96747,Kauai,Kauai,21.9185401,-159.6200401
Community Center,,Kekaha Neighborhood Center,8130 Elepaio Road,Kekaha,HI,96752,Kauai,Kauai,21.9694954,-159.7179253
Community Center,,Kilauea Neighborhood Center,2460 Keneke Street,Kilauea,HI,96754,Kauai,Kauai,22.2119526,-159.4061672
Community Center,,Koloa Neighborhood Center,3461 Weliweli Road,Koloa,HI,96756,Kauai,Kauai,21.9036257,-159.4639217
Community Center,,Lihue Civic Center,4444 Rice St,Lihue,HI,96766,Kauai,Kauai,21.97591577,-159.3687668
Community Center,,Lihue Neighborhood Center,3353 Eono Street,Lihue,HI,96766,Kauai,Kauai,21.9844788,-159.3689256
Community Center,,Waimea Neighborhood Center,4556 Makeke Road,Waimea,HI,96796,Kauai,Kauai,21.95770679,-159.6703023
Community Center,,Lanai Community Center,411 8th St,Lanai City,HI,96763,Lanai,Maui,20.82509,-156.91949
Community Center,,Eddie Tam Memorial Center (Makawao Park),931 Makawao Avenue,Makawao,HI,96768,Maui,Maui,20.851511,-156.3174699
Community Center,,Haiku Park and Community Center,Hana Highway at Pilialoha St,Haiku,HI,96708,Maui,Maui,20.9295088,-156.3204824
Community Center,,Haliimaile Park and Tennis,931 Makomako Street,Makawao,HI,96768,Maui,Maui,20.86965748,-156.3389875
Community Center,,Hana Community Center and District Complex and Ball Park,5091 Uakea Road,Hana,HI,96713,Maui,Maui,20.7534407,-155.9840457
Community Center,,Helene Hall,150 Keawa Pl,Hana,HI,96713,Maui,Maui,20.7547977,-155.9832286
Community Center,,Kahului Civic Center Mixed-Use Complex,153 West Kaahumanu Ave,Kahului,HI,96732,Maui,Maui,20.88951231,-156.4719545
Community Center,,Kahului Community Center,275 Uhu Street,Kahului,HI,96732,Maui,Maui,20.8795927,-156.4773136
Community Center,,Kalama Park,1900 South Kihei Road,Kihei,HI,96753,Maui,Maui,20.73144667,-156.4529338
Community Center,,Kenolio Recreation Complex,131 S. Kihei Rd.,Kihei,HI,96753,Maui,Maui,20.7803975,-156.4614105
Community Center,,Keokea Park,218 Lower Kula Rd,Kula,HI,96790,Maui,Maui,20.7058768,-156.3540471
Community Center,,Kihei Community Center,303 E. Lipoa St.,Kihei,HI,96753,Maui,Maui,20.7497178,-156.447007
Community Center,,Kula Community Center and Tennis Courts,E. Lower Kula Rd.,Kula,HI,96790,Maui,Maui,20.76373633,-156.3258834
Community Center,,Lahaina Civic Center,1840 Honoapiilani Hwy,Lahaina,HI,96761,Maui,Maui,20.9050016,-156.6838128
Community Center,,Mayor Hannibal Tavares Community Center,91 Pukalani St,Pukalani,HI,96768,Maui,Maui,20.8394958,-156.34238
Community Center,,Paia Community Center,252 Hana Hwy,Paia,HI,96779,Maui,Maui,20.9183956,-156.3778207
Community Center,,Velma McWayne Santos Community Center,395 Waena Place,Wailuku,HI,96793,Maui,Maui,20.9001629,-156.4919444
Community Center,,Waikapu Community Center & Park,22 E. Waiko Road,Waikapu,HI,96793,Maui,Maui,20.8540223,-156.5025677
Community Center,,Kilohana Recreation Center & Park Complex,334-A1 Kamehameha V Highway,Kaunakakai,HI,96748,Molokai,Maui,21.0591946,-156.8350978
Community Center,,Kualapuu Park and Community Center,1 Uwao St,Kaulapuu,HI,96729,Molokai,Maui,21.1562461,-157.03685
Community Center,,Mitchell Pauole Community Center,90 Ainoa Street,Kaunakakai,HI,96748,Molokai,Maui,21.0904409,-157.0174919
Community Center,,Na Kupuna Makamae Senior Center,653 Ala Moana Blvd,Honolulu,HI,96813,Oahu,Honolulu,21.2982757,-157.8628163
Community Center,,Kaupo Community Resource Center,34793 Piilani Highway,Hana,HI,96713,Maui,Maui,20.63582095,-156.1238428
Community Center,,KEY Project Multi-Purpose Center,47-200 Waihee Road,Kaneohe,HI,96744,Oahu,Honolulu,21.45786132,-157.8433207
Community Center,,Kaunoa Senior Center,401 Alakapa Place,Paia,HI,96779,Maui,Maui,20.90575531,-156.4113861
Community Center,,Maui Economic Opportunity Family Center,99 Mahalani St,Wailuku,HI,96793,Maui,Maui,20.88629783,-156.4893249
Community Center,,Lanikeha Community Center,2200 Farrington Avenue,Hoolehua,HI,96729,Molokai,Maui,21.16374017,-157.0509088
Community Center,,Oahu Veterans Center,1298 Kukila Street,Honolulu,HI,96818,Oahu,Honolulu,21.36147151,-157.9252465
Community Center,,Kauai Veterans Center,3215 Kapule Hwy,Lihue,HI,96766,Kauai,Kauai,21.97488152,-159.3537309
Community Center,,Hui o Hauula - Hauula Community Center,54-010 Kukuna Rd,Hauula,HI,96717,Oahu,Honolulu,21.60874522,-157.9096915
Community Center,,Koana Cultural Community Center,18-1323 Old Volcano Rd,Mountain View,HI,96771,Hawaii,Hawaii,19.55124718,-155.1071602
Public School,Elementary,DeSilva Elementary,278 Ainako Avenue,Hilo,HI,96720,Hawaii,Hawaii,19.710676,-155.1147
Public School,Elementary,Haaheo Elementary,121 Haaheo Road,Hilo,HI,96720,Hawaii,Hawaii,19.7445638,-155.09238
Public School,Elementary,Eleele Elementary,4750 Uliuli Road,Eleele,HI,96705,Kauai,Kauai,21.9101187,-159.58366
Public School,High,Baldwin High,1650 Kaahumanu Avenue,Wailuku,HI,96793,Maui,Maui,20.890539,-156.49109
Public School,Elementary,Haiku Elementary,105 Pauwela Road,Haiku,HI,96708,Maui,Maui,20.9285295,-156.322
Public School,High,Hilo High,556 Waianuenue Avenue,Hilo,HI,96720,Hawaii,Hawaii,19.7216157,-155.09655
Public School,Middle,Hilo Intermediate,587 Waianuenue Avenue,Hilo,HI,96720,Hawaii,Hawaii,19.7201427,-155.09583
Public School,Elementary,Hilo Union Elementary,506 Waianuenue Avenue,Hilo,HI,96720,Hawaii,Hawaii,19.7230965,-155.09166
Public School,Elementary,Holualoa Elementary,76-5957 Mamalahoa Highway,Holualoa,HI,96725,Hawaii,Hawaii,19.6169341,-155.94844
Public School,Elementary,Honaunau Elementary,83-5360 Mamalahoa Highway,Captain Cook,HI,96704,Hawaii,Hawaii,19.4506131,-155.87918
Public School,Elementary,Honokaa Elementary,45-534 Pakalana Street,Honokaa,HI,96727,Hawaii,Hawaii,20.0756506,-155.46526
Public School,Intermediate,Honokaa High and Intermediate,45-527 Pakalana Street,Honokaa,HI,96727,Hawaii,Hawaii,20.0766982,-155.4642
Public School,Elementary,Hanalei Elementary,5-5415 Kuhio Highway,Hanalei,HI,96714,Kauai,Kauai,22.20037,-159.5032
Public School,Elementary-Middle-High,Hana High and Elementary,4111 Hana Highway,Hana,HI,96713,Maui,Maui,20.7769212,-155.99956
Public School,Middle,Iao Intermediate,260 South Market Street,Wailuku,HI,96793,Maui,Maui,20.8847105,-156.50034
Public School,Elementary,Hookena Elementary,86-4355 Mamalahoa Highway,Captain Cook,HI,96704,Hawaii,Hawaii,19.3868197,-155.87883
Public School,Elementary,Kahakai Elementary,76-147 Royal Poinciana Drive,Kailua-Kona,HI,96740,Hawaii,Hawaii,19.6142329,-155.97776
Public School,Elementary,Kahului Elementary,410 South Hina Avenue,Kahului,HI,96732,Maui,Maui,20.8775149,-156.47039
Public School,Elementary,Aina Haina Elementary,801 West Hind Drive,Honolulu,HI,96821,Oahu,Honolulu,21.2791592,-157.75558
Public School,High,Kailua High,451 Ulumanu Drive,Kailua,HI,96734,Oahu,Honolulu,21.383915,-157.74829
Public School,Elementary-Middle,Kalanianaole Elementary and Intermediate,27-330 Old Mamalahoa Highway,Papaikou,HI,96781,Hawaii,Hawaii,19.7894956,-155.09359
Public School,Elementary,Kapiolani Elementary,966 Kilauea Avenue,Hilo,HI,96720,Hawaii,Hawaii,19.7138644,-155.07831
Public School,Elementary,Kalaheo Elementary,4400 Maka Road,Kalaheo,HI,96741,Kauai,Kauai,21.9229556,-159.5217
Public School,Middle,Kamakahelei Middle,4431 Nuhou St.,Lihue,HI,96766,Kauai,Kauai,21.9671122,-159.38817
Public School,Elementary,Kapaa Elementary,4886 Kawaihau Road,Kapaa,HI,96746,Kauai,Kauai,22.0897219,-159.31357
Public School,High,Kapaa High,4695 Mailihuna Road,Kapaa,HI,96746,Kauai,Kauai,22.0913079,-159.31274
Public School,Middle,Kapaa Middle,4867 Olohena Road,Kapaa,HI,96746,Kauai,Kauai,22.0789348,-159.32826
Public School,Middle,Kalama Intermediate,120 Makani Road,Makawao,HI,96768,Maui,Maui,20.8502801,-156.32082
Public School,Elementary,Kamalii Elementary,180 Alanui Kealii Dr,Kihei,HI,96753,Maui,Maui,20.7217124,-156.44082
Public School,Elementary,Kamehameha III Elementary,611 Front Street,Lahaina,HI,96761,Maui,Maui,20.8703495,-156.67676
Public School,Elementary-Middle-High,Kau High and Pahala Elementary,96-3150 Pikake Street,Pahala,HI,96777,Hawaii,Hawaii,19.20274,-155.47859
Public School,Elementary,Kaumana Elementary,1710 Kaumana Drive,Hilo,HI,96720,Hawaii,Hawaii,19.6861583,-155.13481
Public School,Elementary-Middle-High,Ke Kula O Ehunuikaimalino,81-1041 Konawaena School Road,Kealakekua,HI,96750,Hawaii,Hawaii,19.5095544,-155.91799
Public School,Elementary,Keaau Elementary,16-680 Keaau-Pahoa Road,Keaau,HI,96749,Hawaii,Hawaii,19.613745,-155.03561
Public School,High,Keaau High,16-725 Keaau-Pahoa Road,Keaau,HI,96749,Hawaii,Hawaii,19.612463,-155.03169
Public School,Middle,Keaau Middle,16-565 Keaau-Pahoa Road,Keaau,HI,96749,Hawaii,Hawaii,19.6215737,-155.03746
Public School,High,Kauai High,3577 Lala Road,Lihue,HI,96766,Kauai,Kauai,21.9589689,-159.36039
Public School,Elementary,Kaumualii Elementary,4380 Hanamaulu Road,Lihue,HI,96766,Kauai,Kauai,21.9952355,-159.35087
Public School,Elementary,Kekaha Elementary,8140 Kekaha Road,Kekaha,HI,96752,Kauai,Kauai,21.9717368,-159.71587
Public School,Elementary,Kaunakakai Elementary,30 Ailoa St,Kaunakakai,HI,96748,Molokai,Maui,21.088398,-157.01796
Public School,High,Kekaulike High,121 Kula Highway,Pukalani,HI,96768,Maui,Maui,20.827117,-156.32752
Public School,Elementary,Kihei Elementary,250 E. Lipoa Street,Kihei,HI,96753,Maui,Maui,20.7475982,-156.4473
Public School,Elementary,Kohala Elementary,54-3609 Akoni Pule Highway,Kapaau,HI,96755,Hawaii,Hawaii,20.2375579,-155.81745
Public School,High,Kohala High,54-3611 Akoni Pule Highway,Kapaau,HI,96755,Hawaii,Hawaii,20.2391303,-155.8184
Public School,Middle,Kohala Middle,53-4155 Akoni Pule Highway,Kapaau,HI,96755,Hawaii,Hawaii,20.2273019,-155.7786
Public School,Elementary,Konawaena Elementary,81-901 Onouli Road,Kealakekua,HI,96750,Hawaii,Hawaii,19.505614,-155.92208
Public School,High,Konawaena High,81-1043 Konawaena School Road,Kealakekua,HI,96750,Hawaii,Hawaii,19.5095133,-155.91605
Public School,Middle,Konawaena Middle,81-1045 Konawaena School Road,Kealakekua,HI,96750,Hawaii,Hawaii,19.5097615,-155.91525
Public School,Elementary,Kilauea Elementary,2440 Kolo Road,Kilauea,HI,96754,Kauai,Kauai,22.2063711,-159.40937
Public School,Elementary,Koloa Elementary,3223 Poipu Road,Koloa,HI,96756,Kauai,Kauai,21.8979091,-159.46737
Public School,Elementary,Kilohana Elementary,7253 Kamehameha V Hwy,Kaunakakai,HI,96748,Molokai,Maui,21.0596189,-156.83613
Public School,Elementary,Kula Elementary,5000 Kula Highway,Kula,HI,96790,Maui,Maui,20.7610576,-156.32976
Public School,Middle,Lahaina Intermediate,871 Lahainaluna Road,Lahaina,HI,96761,Maui,Maui,20.8861155,-156.66218
Public School,High,Lahainaluna High,980 Lahainaluna Road,Lahaina,HI,96761,Maui,Maui,20.8878844,-156.66014
Public School,Elementary-Middle-High,Lanai High and Elementary,555 Fraser Avenue,Lanai City,HI,96763,Lanai,Maui,20.8259004,-156.922
Public School,Elementary,Lihikai Elementary,335 South Papa Avenue,Kahului,HI,96732,Maui,Maui,20.8801832,-156.48428
Public School,Middle,Lokelani Intermediate,1401 Liloa Drive,Kihei,HI,96753,Maui,Maui,20.7461919,-156.44759
Public School,Elementary,Makawao Elementary,3542 Baldwin Avenue,Makawao,HI,96768,Maui,Maui,20.8569259,-156.3129
Public School,High,Maui High,660 South Lono Avenue,Kahului,HI,96732,Maui,Maui,20.8736671,-156.47209
Public School,Middle,Maui Waena Intermediate,795 Onehee Street,Kahului,HI,96732,Maui,Maui,20.874031,-156.48474
Public School,Elementary,Maunaloa Elementary,128 Maunaloa Rd,Maunaloa,HI,96770,Molokai,Maui,21.1309304,-157.20949
Public School,Elementary,Mountain View Elementary,18-1235 Volcano Highway,Mountain View,HI,96771,Hawaii,Hawaii,19.5545883,-155.10265
Public School,Elementary,Naalehu Elementary,95-5545 Mamalahoa Highway,Naalehu,HI,96772,Hawaii,Hawaii,19.0613422,-155.58002
Public School,Elementary-Middle-High,Niihau High and Elementary,c/o Waimea High School 9707 Tsuchiya Road,Waimea,HI,96796,Niihau,Kauai,21.957718,-159.66929
Public School,High,Molokai High,2140 Farrington Avenue,Hoolehua,HI,96729,Molokai,Maui,21.1636037,-157.04787
Public School,Middle,Molokai Middle,2175 Lihipali Avenue,Hoolehua,HI,96729,Molokai,Maui,21.1641396,-157.04772
Public School,Elementary,Nahienaena Elementary,816 Niheu Street,Lahaina,HI,96761,Maui,Maui,20.8879321,-156.66364
Public School,Elementary-Middle,Paauilo Elementary and Intermediate,43-1497 Old Main Road,Paauilo,HI,96776,Hawaii,Hawaii,20.0394702,-155.37305
Public School,Elementary,Pahoa Elementary,15-3030 Pahoa Village Road,Pahoa,HI,96778,Hawaii,Hawaii,19.4920328,-154.9435
Public School,Intermediate,Pahoa High and Intermediate,15-3038 Puna Road,Pahoa,HI,96778,Hawaii,Hawaii,19.4908431,-154.94184
Public School,Elementary,Paia Elementary,955 Baldwin Avenue,Paia,HI,96779,Maui,Maui,20.9003063,-156.36346
Public School,Elementary,Pomaikai Elementary,4650 S. Kamehameha Avenue,Kahului,HI,96732,Maui,Maui,20.8646013,-156.48655
Public School,Elementary,Pukalani Elementary,2945 Iolani Street,Pukalani,HI,96768,Maui,Maui,20.8397692,-156.34579
Public School,Elementary,Puu Kukui Elementary,3700 Kehalani Mauka Parkway,Wailuku,HI,96793,Maui,Maui,20.8759904,-156.50822
Public School,Elementary,Waiakea Elementary,180 West Puainako Street,Hilo,HI,96720,Hawaii,Hawaii,19.6951462,-155.075
Public School,High,Waiakea High,155 W. Kawili Street,Hilo,HI,96720,Hawaii,Hawaii,19.6985306,-155.07706
Public School,Middle,Waiakea Intermediate,200 West Puainako Street,Hilo,HI,96720,Hawaii,Hawaii,19.69501,-155.07643
Public School,Elementary,Waiakeawaena Elementary,2420 Kilauea Avenue,Hilo,HI,96720,Hawaii,Hawaii,19.6831773,-155.0681
Public School,Elementary-Middle,Waikoloa Elementary and Middle,68-1730 Hooko Street,Waikoloa,HI,96738,Hawaii,Hawaii,19.9459501,-155.79091
Public School,Elementary,Waihee Elementary,2125 Kahekili Highway,Wailuku,HI,96793,Maui,Maui,20.9342206,-156.51425
Public School,High,Roosevelt High,1120 Nehoa Street,Honolulu,HI,96822,Oahu,Honolulu,21.3098698,-157.83756
Public School,Elementary,Waimea Elementary,67-1225 Mamalahoa Highway,Kamuela,HI,96743,Hawaii,Hawaii,20.0190843,-155.66992
Charter School,Elementary-Middle-High,Kanu O Ka Aina PCS,64-1043 Hiiaka St.,Kamuela,HI,96743,Hawaii,Hawaii,20.0158529,-155.65329
Charter School,Elementary,Kau Learning Academy,94-1581 Kaulua Circle,Naalehu,HI,96772,Hawaii,Hawaii,19.0397518,-155.6344
Charter School,Elementary,Na Wai Ola PCS,18-1355 Volcano Highway P.O. Box 711539,Mountain View,HI,96771,Hawaii,Hawaii,19.5484679,-155.10898
Public School,Middle,Waimea Canyon Middle,9555 Huakai Road,Waimea,HI,96796,Kauai,Kauai,21.9615457,-159.67319
Public School,High,Waimea High,9707 Tsuchiya Road,Waimea,HI,96796,Kauai,Kauai,21.9582678,-159.66803
Public School,Elementary,Wilcox Elementary,4319 Hardy Street,Lihue,HI,96766,Kauai,Kauai,21.9759668,-159.36412
Charter School,Elementary-Middle-High,Kanuikapono PCS,4333 Kukuihale Road,Anahola,HI,96703,Kauai,Kauai,22.1391211,-159.3016
Charter School,Elementary-Middle-High,Ke Kula Niihau O Kekaha LPCS,8135 Kekaha Road,Kekaha,HI,96752,Kauai,Kauai,21.9727215,-159.7153
Public School,Elementary,Wailuku Elementary,355 South High Street,Wailuku,HI,96793,Maui,Maui,20.8832813,-156.50555
Charter School,Elementary-Middle-High,Kula Aupuni Niihau PCS,8315 Kekaha Road Suite P,Kekaha,HI,96752,Kauai,Kauai,21.9692883,-159.71113
Charter School,Intermediate,Ke Ana Laahana PCS,162 Baker Avenue,Hilo,HI,96720,Hawaii,Hawaii,19.727097,-155.04359
Charter School,Elementary-Middle,Kona Pacific PCS,79-7595 Mamamlahoa Highway,Kealakekua,HI,96750,Hawaii,Hawaii,19.5199864,-155.91594
Charter School,Elementary-Middle-High,Kua O Ka La NCPCS,345 Makalika St,Hilo,HI,96720,Hawaii,Hawaii,19.6720858,-155.0555
Charter School,Elementary-Middle-High,Laupahoehoe Community PCS,35-2065 Old Mamalahoa Highway,Laupahoehoe,HI,96764,Hawaii,Hawaii,19.9803917,-155.22646
Charter School,Elementary-Middle,Volcano School of Arts and Sciences,99-128 Old Volcano Road,Volcano,HI,96785,Hawaii,Hawaii,19.4237593,-155.24155
Charter School,Middle,Waimea Middle PCS,67-1229 Mamalahoa Hwy.,Kamuela,HI,96743,Hawaii,Hawaii,20.0181926,-155.66972
Charter School,Intermediate,West Hawai'i Explorations PCS,73-4500 Kahilihili St,Kailua-Kona,HI,96740,Hawaii,Hawaii,19.7139901,-156.03641
Public School,Elementary,Ala Wai Elementary,503 Kamoku Street,Honolulu,HI,96826,Oahu,Honolulu,21.2850372,-157.82612
Public School,Elementary,Aliamanu Elementary,3265 Salt Lake Blvd.,Honolulu,HI,96818,Oahu,Honolulu,21.3440275,-157.91484
Public School,Middle,Aliamanu Middle,3271 Salt Lake Blvd.,Honolulu,HI,96818,Oahu,Honolulu,21.3442717,-157.91535
Public School,Elementary,Aliiolani Elementary,1240 7th Avenue,Honolulu,HI,96816,Oahu,Honolulu,21.2863715,-157.80415
Public School,Elementary-Middle-High,Ke Kula Kaiapuni O Anuenue,2528 10th Avenue,Honolulu,HI,96816,Oahu,Honolulu,21.3041727,-157.78891
Charter School,Elementary-Middle-High,Kihei Charter School,650 Lipoa Pkwy,Kihei,HI,96753,Maui,Maui,20.7483985,-156.43651
Charter School,Elementary,Kualapuu Elementary PCS,260 Farrington Avenue,Kualapuu,HI,96757,Molokai,Maui,21.1577819,-157.04062
Public School,Elementary,Barbers Point Elementary,3001 Boxer Road,Kapolei,HI,96707,Oahu,Honolulu,21.3220096,-158.08211
Public School,High,Campbell High,91-980 North Road,Ewa Beach,HI,96706,Oahu,Honolulu,21.3153059,-158.00743
Public School,High,Castle High,45-386 Kaneohe Bay Drive,Kaneohe,HI,96744,Oahu,Honolulu,21.4046429,-157.79497
Public School,Middle,Central Middle,1302 Queen Emma Street,Honolulu,HI,96813,Oahu,Honolulu,21.31073,-157.85688
Public School,Middle,Dole Middle,1803 Kamehameha IV Road,Honolulu,HI,96819,Oahu,Honolulu,21.3434174,-157.87176
Public School,Elementary,Enchanted Lake Elementary,770 Keolu Drive,Kailua,HI,96734,Oahu,Honolulu,21.3840444,-157.73153
Public School,Elementary,Ewa Beach Elementary,91-740 Papipi Road,Ewa Beach,HI,96706,Oahu,Honolulu,21.3150273,-158.01438
Public School,Elementary,Ewa Elementary,91-1280 Renton Road,Ewa Beach,HI,96706,Oahu,Honolulu,21.3442613,-158.03447
Public School,Middle,Ewa Makai Middle,91-6291 Kapolei Parkway,Kapolei,HI,96706,Oahu,Honolulu,21.3226374,-158.02718
Public School,High,Farrington High,1564 North King Street,Honolulu,HI,96817,Oahu,Honolulu,21.3300406,-157.8736
Public School,Elementary,Fern Elementary,1121 Middle Street,Honolulu,HI,96819,Oahu,Honolulu,21.3390758,-157.88215
Public School,Elementary,Hahaione Elementary,595 Pepeekeo Street,Honolulu,HI,96825,Oahu,Honolulu,21.296324,-157.7108
Public School,Elementary,Haleiwa Elementary,66-505 Haleiwa Road,Haleiwa,HI,96712,Oahu,Honolulu,21.5843849,-158.11399
Public School,Elementary,Hauula Elementary,54-046 Kamehameha Highway,Hauula,HI,96717,Oahu,Honolulu,21.6063823,-157.90824
Public School,Elementary-Middle-High,Hawaii School for the Deaf and the Blind,3440 Leahi Avenue,Honolulu,HI,96815,Oahu,Honolulu,21.2726753,-157.81577
Public School,Elementary,Heeia Elementary,46-202 Haiku Road,Kaneohe,HI,96744,Oahu,Honolulu,21.4191643,-157.80915
Public School,Elementary,Helemano Elementary,1001 Ihi Ihi Avenue,Wahiawa,HI,96786,Oahu,Honolulu,21.513534,-158.02343
Public School,Elementary,Hickam Elementary,825 Manzelman Circle,Honolulu,HI,96818,Oahu,Honolulu,21.3432944,-157.96224
Public School,Middle,Highlands Intermediate,1460 Hoolaulea Street,Pearl City,HI,96782,Oahu,Honolulu,21.4002628,-157.96208
Public School,Elementary,Hokulani Elementary,2940 Kamakini Street,Honolulu,HI,96816,Oahu,Honolulu,21.2908017,-157.81343
Public School,Elementary,Holomua Elementary,91-1561 Keaunui Drive,Ewa Beach,HI,96706,Oahu,Honolulu,21.3390839,-158.02115
Public School,Elementary,Honowai Elementary,94-600 Honowai Street,Waipahu,HI,96797,Oahu,Honolulu,21.3842122,-158.02652
Public School,Elementary,Iliahi Elementary,2035 California Avenue,Wahiawa,HI,96786,Oahu,Honolulu,21.5065222,-157.99965
Public School,Middle,Ilima Intermediate,91-884 Fort Weaver Road,Ewa Beach,HI,96706,Oahu,Honolulu,21.3147324,-158.01161
Public School,Elementary,Inouye Elementary,1 Ayres Avenue,Wahiawa,HI,96786,Oahu,Honolulu,21.4990525,-158.05658
Public School,Elementary,Iroquois Point Elementary,5553 Cormorant Avenue,Ewa Beach,HI,96706,Oahu,Honolulu,21.3190208,-157.98152
Public School,Middle,Jarrett Middle,1903 Palolo Avenue,Honolulu,HI,96816,Oahu,Honolulu,21.2974989,-157.79813
Public School,Elementary,Jefferson Elementary,324 Kapahulu Avenue,Honolulu,HI,96815,Oahu,Honolulu,21.2721835,-157.81936
Public School,Elementary,Kaaawa Elementary,51-296 Kamehameha Highway,Kaaawa,HI,96730,Oahu,Honolulu,21.5481844,-157.8467
Public School,Elementary,Kaahumanu Elementary,1141 Kinau Street,Honolulu,HI,96814,Oahu,Honolulu,21.302851,-157.84394
Public School,Elementary,Kaala Elementary,130 California Avenue,Wahiawa,HI,96786,Oahu,Honolulu,21.4933132,-158.0363
Public School,Elementary,Kaelepulu Elementary,530 Keolu Drive,Kailua,HI,96734,Oahu,Honolulu,21.3815851,-157.74101
Public School,Elementary,Kaewai Elementary,1929 Kamehameha IV Road,Honolulu,HI,96819,Oahu,Honolulu,21.3454874,-157.86957
Public School,Elementary,Kahala Elementary,4559 Kilauea Avenue,Honolulu,HI,96816,Oahu,Honolulu,21.273898,-157.78532
Public School,Elementary,Kahaluu Elementary,47-280 Waihee Road,Kaneohe,HI,96744,Oahu,Honolulu,21.4577994,-157.84486
Public School,Elementary,Kahuku Elementary,56-170 Pualalea Street,Kahuku,HI,96731,Oahu,Honolulu,21.6744595,-157.95123
Public School,Intermediate,Kahuku High and Intermediate,56-490 Kamehameha Highway,Kahuku,HI,96731,Oahu,Honolulu,21.6759339,-157.94734
Public School,Elementary,Kailua Elementary,315 Kuulei Road,Kailua,HI,96734,Oahu,Honolulu,21.3956438,-157.74168
Public School,Middle,Kailua Intermediate,145 South Kainalu Drive,Kailua,HI,96734,Oahu,Honolulu,21.3952174,-157.73597
Public School,Elementary,Kaimiloa Elementary,91-1028 Kaunolu Street,Ewa Beach,HI,96706,Oahu,Honolulu,21.3196638,-158.00849
Public School,High,Kaimuki High,2705 Kaimuki Avenue,Honolulu,HI,96816,Oahu,Honolulu,21.2878552,-157.81587
Public School,Middle,Kaimuki Middle,631 18th Avenue,Honolulu,HI,96816,Oahu,Honolulu,21.270103,-157.79762
Public School,Elementary,Kainalu Elementary,165 Kaiholu Street,Kailua,HI,96734,Oahu,Honolulu,21.4136076,-157.74835
Public School,High,Kaiser High,511 Lunalilo Home Road,Honolulu,HI,96825,Oahu,Honolulu,21.2860836,-157.69764
Public School,Elementary,Kaiulani Elementary,783 North King Street,Honolulu,HI,96817,Oahu,Honolulu,21.3214109,-157.86695
Public School,High,Kalaheo High,730 Iliaina Street,Kailua,HI,96734,Oahu,Honolulu,21.407974,-157.75791
Public School,Middle,Kalakaua Middle,821 Kalihi Street,Honolulu,HI,96819,Oahu,Honolulu,21.3295569,-157.87691
Public School,High,Kalani High,4680 Kalanianaole Highway,Honolulu,HI,96821,Oahu,Honolulu,21.2773205,-157.77378
Public School,Elementary,Kaleiopuu Elementary,94-665 Kaaholo Street,Waipahu,HI,96797,Oahu,Honolulu,21.3921915,-158.0272
Public School,Elementary,Kalihi Elementary,2471 Kula Kolea Drive,Honolulu,HI,96819,Oahu,Honolulu,21.3512742,-157.86167
Public School,Elementary,Kalihi Kai Elementary,626 McNeil Street,Honolulu,HI,96817,Oahu,Honolulu,21.3261267,-157.8775
Public School,Elementary,Kalihi Uka Elementary,2411 Kalihi Street,Honolulu,HI,96819,Oahu,Honolulu,21.3456109,-157.86202
Public School,Elementary,Kalihi Waena Elementary,1240 Gulick Avenue,Honolulu,HI,96819,Oahu,Honolulu,21.3356002,-157.87558
Public School,Elementary,Kamiloiki Elementary,7788 Hawaii Kai Drive,Honolulu,HI,96825,Oahu,Honolulu,21.2942307,-157.68605
Public School,Elementary,Kaneohe Elementary,45-495 Kamehameha Highway,Kaneohe,HI,96744,Oahu,Honolulu,21.3957021,-157.79737
Public School,Elementary,Kanoelani Elementary,94-1091 Oli Loop,Waipahu,HI,96797,Oahu,Honolulu,21.415832,-157.99897
Public School,Elementary,Kapalama Elementary,1601 North School Street,Honolulu,HI,96817,Oahu,Honolulu,21.3352295,-157.86882
Public School,Elementary,Kapolei Elementary,91-1119 Kamaaha Loop,Kapolei,HI,96707,Oahu,Honolulu,21.3344328,-158.06431
Public School,High,Kapolei High,91-5007 Kapolei Parkway,Kapolei,HI,96707,Oahu,Honolulu,21.3282009,-158.0683
Public School,Middle,Kapolei Middle,91-5335 Kapolei Parkway,Kapolei,HI,96707,Oahu,Honolulu,21.3323696,-158.05739
Public School,Elementary,Kapunahala Elementary,45-828 Anoi Road,Kaneohe,HI,96744,Oahu,Honolulu,21.408791,-157.80364
Public School,Elementary,Kauluwela Elementary,1486 Aala Street,Honolulu,HI,96817,Oahu,Honolulu,21.3184295,-157.85853
Public School,Middle,Kawananakoa Middle,49 Funchal Street,Honolulu,HI,96813,Oahu,Honolulu,21.3192058,-157.8511
Public School,Elementary,Keolu Elementary,1416 Keolu Drive,Kailua,HI,96734,Oahu,Honolulu,21.370889,-157.73541
Public School,Elementary,Keoneula Elementary,91-970 Kaileolea Drive,Ewa Beach,HI,96706,Oahu,Honolulu,21.3226579,-158.02021
Public School,Middle,King Intermediate,46-155 Kamehameha Highway,Kaneohe,HI,96744,Oahu,Honolulu,21.4257284,-157.80645
Public School,Elementary,Kipapa Elementary,95-076 Kipapa Drive,Mililani,HI,96789,Oahu,Honolulu,21.4618319,-158.01342
Public School,Elementary,Koko Head Elementary,189 Lunalilo Home Road,Honolulu,HI,96825,Oahu,Honolulu,21.2758452,-157.70485
Public School,Elementary,Kuhio Elementary,2759 South King Street,Honolulu,HI,96826,Oahu,Honolulu,21.2902935,-157.81927
Public School,Elementary,Laie Elementary,55-109 Kulanui Street,Laie,HI,96762,Oahu,Honolulu,21.6498614,-157.92478
Public School,Elementary,Lanakila Elementary,717 North Kuakini Street,Honolulu,HI,96817,Oahu,Honolulu,21.3270311,-157.85977
Public School,Elementary,Lehua Elementary,791 Lehua Avenue,Pearl City,HI,96782,Oahu,Honolulu,21.3892438,-157.97219
Public School,Elementary,Leihoku Elementary,86-285 Leihoku Street,Waianae,HI,96792,Oahu,Honolulu,21.439124,-158.175
Public School,High,Leilehua High,1515 California Avenue,Wahiawa,HI,96786,Oahu,Honolulu,21.5023099,-158.01229
Public School,Elementary,Liholiho Elementary,3430 Maunaloa Avenue,Honolulu,HI,96816,Oahu,Honolulu,21.2784622,-157.8065
Public School,Elementary,Likelike Elementary,1618 Palama Street,Honolulu,HI,96817,Oahu,Honolulu,21.3243819,-157.86347
Public School,Elementary,Linapuni Elementary,1434 Linapuni Street,Honolulu,HI,96819,Oahu,Honolulu,21.3387681,-157.87785
Public School,Elementary,Lincoln Elementary,615 Auwaiolimu Street,Honolulu,HI,96813,Oahu,Honolulu,21.3120789,-157.8396
Public School,Elementary,Lunalilo Elementary,810 Pumehana Street,Honolulu,HI,96826,Oahu,Honolulu,21.2928076,-157.83228
Public School,Elementary,Maemae Elementary,319 Wyllie Street,Honolulu,HI,96817,Oahu,Honolulu,21.3288692,-157.84715
Public School,Elementary,Maili Elementary,87-360 Kulaaupuni Street,Waianae,HI,96792,Oahu,Honolulu,21.4198135,-158.17411
Public School,Elementary,Makaha Elementary,84-200 Ala Naauao Place,Waianae,HI,96792,Oahu,Honolulu,21.4692837,-158.21241
Public School,Elementary,Makakilo Elementary,92-675 Anipeahi Street,Kapolei,HI,96707,Oahu,Honolulu,21.3456913,-158.08425
Public School,Elementary,Makalapa Elementary,4435 Salt Lake Blvd.,Honolulu,HI,96818,Oahu,Honolulu,21.36163,-157.9278
Public School,Elementary,Manana Elementary,1147 Kumano Street,Pearl City,HI,96782,Oahu,Honolulu,21.4081709,-157.97221
Public School,Elementary,Manoa Elementary,3155 Manoa Road,Honolulu,HI,96822,Oahu,Honolulu,21.3171544,-157.80902
Public School,Elementary,Mauka Lani Elementary,92-1300 Panana Street,Kapolei,HI,96707,Oahu,Honolulu,21.3580099,-158.08282
Public School,Elementary,Maunawili Elementary,1465 Ulupii Street,Kailua,HI,96734,Oahu,Honolulu,21.3771305,-157.75312
Public School,High,McKinley High,1039 South King Street,Honolulu,HI,96814,Oahu,Honolulu,21.3010304,-157.84756
Public School,High,Mililani High,95-1200 Meheula Parkway,Mililani,HI,96789,Oahu,Honolulu,21.4532235,-158.00817
Public School,Elementary,Mililani Ike Elementary,95-1330 Lehiwa Drive,Mililani,HI,96789,Oahu,Honolulu,21.4798466,-157.98487
Public School,Elementary,Mililani Mauka Elementary,95-1111 Makaikai Street,Mililani,HI,96789,Oahu,Honolulu,21.47159,-158.00076
Public School,Middle,Mililani Middle,95-1140 Lehiwa Drive,Mililani,HI,96789,Oahu,Honolulu,21.4745609,-157.99011
Public School,Elementary,Mililani Uka Elementary,94-380 Kuahelani Avenue,Mililani,HI,96789,Oahu,Honolulu,21.4378676,-158.01546
Public School,Elementary,Mililani Waena Elementary,95-502 Kipapa Drive,Mililani,HI,96789,Oahu,Honolulu,21.4557504,-158.0098
Public School,Elementary,Moanalua Elementary,1337 Mahiole Street,Honolulu,HI,96819,Oahu,Honolulu,21.3494106,-157.89129
Public School,High,Moanalua High,2825 Ala Ilima Street,Honolulu,HI,96818,Oahu,Honolulu,21.3452947,-157.90098
Public School,Middle,Moanalua Middle,1289 Mahiole Street,Honolulu,HI,96819,Oahu,Honolulu,21.3499549,-157.89223
Public School,Elementary,Mokapu Elementary,1193 Mokapu Blvd. KMCB Bldg.,Kailua,HI,96734,Oahu,Honolulu,21.4447008,-157.74953
Public School,Elementary,Mokulele Elementary,250 Aupaka Street,Honolulu,HI,96818,Oahu,Honolulu,21.3423131,-157.94102
Public School,Elementary,Momilani Elementary,2130 Hookiekie Street,Pearl City,HI,96782,Oahu,Honolulu,21.4121128,-157.95459
Public School,Elementary,Nanaikapono Elementary,89-153 Mano Avenue,Waianae,HI,96792,Oahu,Honolulu,21.3840345,-158.14218
Public School,Elementary,Nanakuli Elementary,89-778 Haleakala Avenue,Waianae,HI,96792,Oahu,Honolulu,21.3872913,-158.13663
Public School,Intermediate,Nanakuli High and Intermediate,89-980 Nanakuli Avenue,Waianae,HI,96792,Oahu,Honolulu,21.3865258,-158.13104
Public School,Elementary,Nimitz Elementary,520 Main Street,Honolulu,HI,96818,Oahu,Honolulu,21.3406341,-157.93602
Public School,Middle,Niu Valley Middle,310 Halemaumau Street,Honolulu,HI,96821,Oahu,Honolulu,21.2854519,-157.73907
Public School,Elementary,Noelani Elementary,2655 Woodlawn Drive,Honolulu,HI,96822,Oahu,Honolulu,21.3065504,-157.81162
Public School,Elementary,Nuuanu Elementary,3055 Puiwa Lane,Honolulu,HI,96817,Oahu,Honolulu,21.3359929,-157.8359
Public School,Intermediate,Olomana School,42-522 Kalanianaole Highway,Kailua,HI,96734,Oahu,Honolulu,21.3761464,-157.74853
Public School,Elementary,Palisades Elementary,2306 Auhuhu Street,Pearl City,HI,96782,Oahu,Honolulu,21.4247845,-157.9538
Public School,Elementary,Palolo Elementary,2106 10th Avenue,Honolulu,HI,96816,Oahu,Honolulu,21.2996982,-157.79154
Public School,Elementary,Parker Elementary,45-259 Waikalua Road,Kaneohe,HI,96744,Oahu,Honolulu,21.4135242,-157.79889
Public School,Elementary,Pauoa Elementary,2301 Pauoa Road,Honolulu,HI,96813,Oahu,Honolulu,21.3192605,-157.84395
Public School,Elementary,Pearl City Elementary,1090 Waimano Home Road,Pearl City,HI,96782,Oahu,Honolulu,21.3951363,-157.96975
Public School,High,Pearl City High,2100 Hookiekie Street,Pearl City,HI,96782,Oahu,Honolulu,21.413811,-157.95553
Public School,Elementary,Pearl City Highlands Elementary,1419 Waimano Home Road,Pearl City,HI,96782,Oahu,Honolulu,21.4035962,-157.96605
Public School,Elementary,Pearl Harbor Elementary,1 Moanalua Ridge,Honolulu,HI,96818,Oahu,Honolulu,21.3447987,-157.93096
Public School,Elementary,Pearl Harbor Kai Elementary,1 C Avenue,Honolulu,HI,96818,Oahu,Honolulu,21.3484815,-157.93725
Public School,Elementary,Pearl Ridge Elementary,98-940 Moanalua Road,Aiea,HI,96701,Oahu,Honolulu,21.3877928,-157.94528
Public School,Elementary,Pohakea Elementary,91-750 Fort Weaver Road,Ewa Beach,HI,96706,Oahu,Honolulu,21.313342,-158.01076
Public School,Elementary,Pope Elementary,41-133 Huli Street,Waimanalo,HI,96795,Oahu,Honolulu,21.32836,-157.69491
Public School,Elementary,Puohala Elementary,45-233 Kulauli Street,Kaneohe,HI,96744,Oahu,Honolulu,21.4094484,-157.78985
Public School,Elementary,Puuhale Elementary,345 Puuhale Road,Honolulu,HI,96819,Oahu,Honolulu,21.327558,-157.88486
Public School,High,Radford High,4361 Salt Lake Blvd.,Honolulu,HI,96818,Oahu,Honolulu,21.3586299,-157.92698
Public School,Elementary,Red Hill Elementary,1265 Ala Kula Place,Honolulu,HI,96819,Oahu,Honolulu,21.3687316,-157.90031
Public School,Elementary,Royal School,1519 Queen Emma Street,Honolulu,HI,96813,Oahu,Honolulu,21.3121123,-157.85433
Public School,Elementary,Salt Lake Elementary,1131 Ala Lilikoi Street,Honolulu,HI,96818,Oahu,Honolulu,21.3508943,-157.912
Public School,Elementary,Scott Elementary,98-1230 Moanalua Road,Aiea,HI,96701,Oahu,Honolulu,21.3811452,-157.93436
Public School,Elementary,Shafter Elementary,2 Fort Shafter,Honolulu,HI,96819,Oahu,Honolulu,21.3418746,-157.88481
Public School,Elementary,Solomon Elementary,2875 Waianae Uka Avenue,Wahiawa,HI,96786,Oahu,Honolulu,21.4911702,-158.0733
Public School,Middle,Stevenson Middle,1202 Prospect Street,Honolulu,HI,96822,Oahu,Honolulu,21.309879,-157.84118
Public School,Elementary,Sunset Beach Elementary,59-360 Kamehameha Highway,Haleiwa,HI,96712,Oahu,Honolulu,21.6635939,-158.04999
Public School,Elementary,Wahiawa Elementary,1402 Glen Avenue,Wahiawa,HI,96786,Oahu,Honolulu,21.5040629,-158.01808
Public School,Middle,Wahiawa Middle,275 Rose Street,Wahiawa,HI,96786,Oahu,Honolulu,21.4950149,-158.01787
Public School,Elementary,Waiahole Elementary,48-215 Waiahole Valley Road,Kaneohe,HI,96744,Oahu,Honolulu,21.4828489,-157.85249
Public School,Elementary,Waialua Elementary,67-020 Waialua Beach Road,Waialua,HI,96791,Oahu,Honolulu,21.5753618,-158.12159
Public School,Intermediate,Waialua High and Intermediate,67-160 Farrington Highway,Waialua,HI,96791,Oahu,Honolulu,21.5656239,-158.12566
Public School,Elementary,Waianae Elementary,85-220 McArthur Street,Waianae,HI,96792,Oahu,Honolulu,21.4446743,-158.18454
Public School,Elementary,Waiau Elementary,98-450 Hookanike Street,Pearl City,HI,96782,Oahu,Honolulu,21.3981497,-157.95403
Public School,Elementary,Waikele Elementary,94-1035 Kukula Street,Waipahu,HI,96797,Oahu,Honolulu,21.4020344,-158.01171
Public School,Elementary,Waikiki Elementary,3710 Leahi Avenue,Honolulu,HI,96815,Oahu,Honolulu,21.2681915,-157.81521
Public School,Elementary,Waimalu Elementary,98-825 Moanalua Road,Aiea,HI,96701,Oahu,Honolulu,21.3907392,-157.9497
Public School,Elementary-Middle,Waimanalo Elementary and Intermediate,41-1330 Kalanianaole Highway,Waimanalo,HI,96795,Oahu,Honolulu,21.3470376,-157.71582
Public School,Elementary,Waipahu Elementary,94-465 Waipahu Street,Waipahu,HI,96797,Oahu,Honolulu,21.3855118,-158.01596
Public School,High,Waipahu High,94-1211 Farrington Highway,Waipahu,HI,96797,Oahu,Honolulu,21.390315,-157.99351
Public School,Middle,Waipahu Intermediate,94-445 Farrington Highway,Waipahu,HI,96797,Oahu,Honolulu,21.3818664,-158.01451
Public School,Middle,Washington Middle,1633 South King Street,Honolulu,HI,96826,Oahu,Honolulu,21.296641,-157.83508
Public School,Elementary,Webling Elementary,99-370 Paihi Street,Aiea,HI,96701,Oahu,Honolulu,21.3807498,-157.9195
Public School,Elementary,Wheeler Elementary,1 Wheeler Army Air Field,Wahiawa,HI,96800,Oahu,Honolulu,21.4869385,-158.03927
Public School,Middle,Wheeler Middle,2 Wheeler Army Air Field,Wahiawa,HI,96800,Oahu,Honolulu,21.4867389,-158.03833
Public School,Elementary,Wilson Elementary,4945 Kilauea Avenue,Honolulu,HI,96816,Oahu,Honolulu,21.2818391,-157.7851
Charter School,Elementary-Middle,Ka Waihona O Ka Naauao PCS,89-195 Farrington Highway,Waianae,HI,96792,Oahu,Honolulu,21.3806562,-158.14461
Charter School,Elementary-Middle-High,Kamaile Academy PCS,85-180 Ala Akau Street,Waianae,HI,96792,Oahu,Honolulu,21.4566746,-158.19453
Charter School,Elementary-Middle-High,Ke Kula 'o Samuel M. Kamakau LPCS,46-500 Kuneki Street,Kaneohe,HI,96744,Oahu,Honolulu,21.4089472,-157.82164
Charter School,Elementary,Lanikai Elementary PCS,140 Alala Road,Kailua,HI,96734,Oahu,Honolulu,21.3937876,-157.72579
Charter School,Elementary,Malama Honua PCS,41-054 Ehukai Street,Waimanalo,HI,96795,Oahu,Honolulu,21.3393568,-157.70234
Charter School,Elementary-Middle-High,Myron B. Thompson Academy,1040 Richards St. Ste. 220,Honolulu,HI,96813,Oahu,Honolulu,21.307491,-157.85965
Charter School,Elementary-Middle-High,University Laboratory,1776 University Avenue UHS Bldg 3 #121,Honolulu,HI,96822,Oahu,Honolulu,21.2979144,-157.8217379
Charter School,Elementary-Middle,Voyager PCS,2428 Wilder Avenue,Honolulu,HI,96822,Oahu,Honolulu,21.2958018,-157.82294
Charter School,Elementary,Waialae Elementary PCS,1045 19th Avenue,Honolulu,HI,96816,Oahu,Honolulu,21.2764237,-157.79279
Charter School,Middle,SEEQS PCS,845 22nd Ave.,Honolulu,HI,96816,Oahu,Honolulu,21.2717347,-157.792
Public School,Elementary,Ahrens Elementary,94-1170 Waipahu Street,Waipahu,HI,96797,Oahu,Honolulu,21.3931227,-158.0006
Public School,Elementary,Ahuimanu Elementary,47-470 Hui Aeko Place,Kaneohe,HI,96744,Oahu,Honolulu,21.4356029,-157.83042
Public School,Elementary,Aiea Elementary,99-370 Moanalua Road,Aiea,HI,96701,Oahu,Honolulu,21.376001,-157.92959
Public School,High,Aiea High,98-1276 Ulune Street,Aiea,HI,96701,Oahu,Honolulu,21.3838276,-157.93061
Public School,Middle,Aiea Intermediate,99-600 Kulawea Street,Aiea,HI,96701,Oahu,Honolulu,21.3795246,-157.92515
Public School,Elementary,Aikahi Elementary,281 Ilihau Street,Kailua,HI,96734,Oahu,Honolulu,21.424443,-157.74919
Public School,Elementary,Kealakehe Elementary,74-5118 Kealakaa Street,Kailua-Kona,HI,96740,Hawaii,Hawaii,19.6689683,-155.98216
Public School,High,Kealakehe High,74-5000 Puohulihuli Street,Kailua-Kona,HI,96740,Hawaii,Hawaii,19.6707401,-155.99828
Public School,Middle,Kealakehe Intermediate,74-5062 Onipaa Street,Kailua-Kona,HI,96740,Hawaii,Hawaii,19.6711592,-155.98492
Public School,Elementary,Keaukaha Elementary,240 Desha Avenue,Hilo,HI,96720,Hawaii,Hawaii,19.7283273,-155.04505
Public School,Elementary,Keonepoko Elementary,15-890 Kahakai Boulevard,Pahoa,HI,96778,Hawaii,Hawaii,19.5256769,-154.92616
Public School,High,Waianae High,85-251 Farrington Highway,Waianae,HI,96792,Oahu,Honolulu,21.4559147,-158.19947
Public School,Middle,Waianae Intermediate,85-626 Farrington Highway,Waianae,HI,96792,Oahu,Honolulu,21.4515603,-158.19334
Charter School,Elementary-Middle-High,Connections PCS,174 Kamehameha Avenue,Hilo,HI,96720,Hawaii,Hawaii,19.7253883,-155.08627
Charter School,Elementary-Middle-High,Hawaii Academy of Arts and Science PCS,15-1397 Homestead Road,Pahoa,HI,96778,Hawaii,Hawaii,19.5000248,-154.94484
Charter School,Elementary-Middle,Innovations PCS,75-5815 Queen Kaahumanu Highway,Kailua-Kona,HI,96740,Hawaii,Hawaii,19.6320333,-155.97509
Charter School,Elementary-Middle,Ka Umeke Kaeo PCS,222 Desha Avenue,Hilo,HI,96720,Hawaii,Hawaii,19.7284282,-155.04494
Public School,Elementary,Hookele Elementary,511 Kunehi Street,Kapolei,HI,96707,Oahu,Honolulu,21.3273246,-158.07205
Charter School,Elementary-Middle-High,Hakipuu Learning Center PCS,45-720 Keaahala Road,Kaneohe,HI,96744,Oahu,Honolulu,21.4094773,-157.81002
Charter School,Intermediate,Halau Ku Mana PCS,2101 Makiki Heights Drive,Honolulu,HI,96822,Oahu,Honolulu,21.3131123,-157.82977
Charter School,Elementary-Middle-High,Hawai'i Technology Academy PCS,94-450 Mokuola Street,Waipahu,HI,96797,Oahu,Honolulu,21.3880608,-158.00702
Charter School,Elementary-Middle,Ke Kula 'o Nawahiokalani'opu'u Iki Laboratory PCS,16-120 Opukahaia Street Suite 2,Keaau,HI,96749,Hawaii,Hawaii,19.6057481,-155.02896
Charter School,Elementary-Middle-High,Kawaikini NCPCS,3-1821 J Kaumualii Hwy,Lihue,HI,96766,Kauai,Kauai,21.9684091,-159.39952
Early Head Start,,EHS East II,92-1750 Kunia Drive,Kunia,HI,96759,Oahu,Honolulu,21.4616421,-158.0640649
Early Head Start,,EHS Homevisiting at Ewa Beach,91-1841 Fort Weaver Rd,Ewa Beach,HI,96706,Oahu,Honolulu,21.3542,-158.0292
Early Head Start,,EHS West I,92-1750 Kunia Drive,Kunia,HI,96759,Oahu,Honolulu,21.4616421,-158.0640649
Early Head Start,,EHS West II,92-1750 Kunia Drive,Kunia,HI,96759,Oahu,Honolulu,21.4616421,-158.0640649
Early Head Start,,Ka Pua,87-790 Kulauka Street,Waianae,HI,96792,Oahu,Honolulu,21.4069,-158.1709
Early Head Start,,Kahuku HB,54-316 Kamehameha Hwy # 5A,Hauula,HI,96717,Oahu,Honolulu,21.6201,-157.9165
Early Head Start,,Kamaaina Kids - Barber's Pt.,1965 Bougainville Ave,Kapolei,HI,96707,Oahu,Honolulu,21.3264,-158.0579
Early Head Start,,Kamaaina Kids - Ewa,91-1841 Fort Weaver Rd,Ewa Beach,HI,96706,Oahu,Honolulu,21.3547,-158.0293
Early Head Start,,Kamaaina Kids - Maili,87-227 Saint Johns Rd,Waianae,HI,96792,Oahu,Honolulu,21.4164,-158.1725
Early Head Start,,Kuhio Park Terrace Portable,1485 Linapuni St,Honolulu,HI,96819,Oahu,Honolulu,21.3381,-157.8769
Early Head Start,,Leeward Health Center,860 Fourth St Ste 110,Pearl City,HI,96782,Oahu,Honolulu,21.3926,-157.9698
Early Head Start,,Waialua High School,67-160 Farrington Hwy,Waialua,HI,96791,Oahu,Honolulu,21.5657,-158.1258
Early Head Start,,Waimanalo Portable,"41-038 Wailea St, Mod 1",Waimanalo,HI,96795,Oahu,Honolulu,21.3332,-157.697
Early Head Start,,West Oahu Home Base,94-366 Pupupani St Ste 302,Waipahu,HI,96797,Oahu,Honolulu,21.3816,-158.0169
Head Start,,442,85-555 Farrington Hwy,Waianae,HI,96792,Oahu,Honolulu,21.4518,-158.1943
Head Start,,Aiea El.,99-370 Moanalua Rd,Aiea,HI,96701,Oahu,Honolulu,21.3762,-157.9281
Head Start,,Ala Wai El.,503 Kamoku St Rm E-33,Honolulu,HI,96826,Oahu,Honolulu,21.2849,-157.827
Head Start,,Ben Parker El.,45-259 Waikalua Rd,Kaneohe,HI,96744,Oahu,Honolulu,21.4138,-157.7971
Head Start,,Daniel K. Inouye El.,1 Waianae Avenue,Wahiawa,HI,96786,Oahu,Honolulu,21.4899,-158.0491
Head Start,,Early Head Start at Consuelo Cottage,91-1841 Fort Weaver Rd,Ewa Beach,HI,96706,Oahu,Honolulu,21.3542,-158.0292
Head Start,,Enchanted Lake El.,770 Keolu Dr Rm D-5,Kailua,HI,96734,Oahu,Honolulu,21.383,-157.7323
Head Start,,Ewa El.,91-1280 Renton Rd,Ewa Beach,HI,96706,Oahu,Honolulu,21.3441,-158.0336
Head Start,,Fern PrePlus Elementary School,1121 Middle St,Honolulu,HI,96819,Oahu,Honolulu,21.3388,-157.8818
Head Start,,Halawa,99-795 Iwaiwa St,Aiea,HI,96701,Oahu,Honolulu,21.3723,-157.915
Head Start,,Hauula El.,54-046 Kamehameha Hwy Rm C-15,Hauula,HI,96717,Oahu,Honolulu,21.6063,-157.9082
Head Start,,Heeia El.,46-202 Haiku Rd Rm E-6,Kaneohe,HI,96744,Oahu,Honolulu,21.418,-157.8085
Head Start,,HS HB 1,92-1750 Kunia Drive,Kunia,HI,96759,Oahu,Honolulu,21.4565,-158.0595
Head Start,,HS HB II,92-1750 Kunia Drive,Kunia,HI,96759,Oahu,Honolulu,21.4565,-158.0595
Head Start,,Iroquois Point El.,5553 Cormorant Ave,Ewa Beach,HI,96706,Oahu,Honolulu,21.3195,-157.9816
Head Start,,Jefferson El.,324 Kapahulu Ave,Honolulu,HI,96815,Oahu,Honolulu,21.2734,-157.82
Head Start,,Ka Pua,87-790 Kulauku St,Waianae,HI,96792,Oahu,Honolulu,21.4069,-158.1709
Head Start,,Kaala El.,130 California Ave,Wahiawa,HI,96786,Oahu,Honolulu,21.4943,-158.0367
Head Start,,Kaewai El.,1929 Kamehameha IV Rd,Honolulu,HI,96819,Oahu,Honolulu,21.3455,-157.8696
Head Start,,Kahaluu El.,47-280 Waihee Rd,Kaneohe,HI,96744,Oahu,Honolulu,21.4575,-157.8475
Head Start,,Kahi Kolu,85-296 Ala Hema St,Waianae,HI,96792,Oahu,Honolulu,21.4534,-158.1902
Head Start,,Kahuku,56-170 Pualalea St,Kahuku,HI,96731,Oahu,Honolulu,21.6745,-157.9512
Head Start,,Kailua El.,315 Kuulei Rd,Kailua,HI,96734,Oahu,Honolulu,21.3956,-157.7415
Head Start,,Kaimiloa El.,91-1028 Kaunolu St,Ewa Beach,HI,96706,Oahu,Honolulu,21.3198,-158.0086
Head Start,,Kainalu El.,165 Kaiholu St,Kailua,HI,96734,Oahu,Honolulu,21.4129,-157.7492
Head Start,,Kaiulani El.,783 N King St,Honolulu,HI,96817,Oahu,Honolulu,21.3213,-157.8677
Head Start,,Kalihi Elementary School,2471 Kula Kolea Dr,Honolulu,HI,96819,Oahu,Honolulu,21.3524,-157.8611
Head Start,,Kalihi Kai El.,626 McNeill St,Honolulu,HI,96817,Oahu,Honolulu,21.3434,-157.8391
Head Start,,Kaneohe El.,45-495 Kamehameha Hwy,Kaneohe,HI,96744,Oahu,Honolulu,21.3964,-157.796
Head Start,,Kapalama El.,1601 N School St,Honolulu,HI,96817,Oahu,Honolulu,21.3353,-157.869
Head Start,,Keiki Country,87-412 Kaukama Rd,Waianae,HI,96792,Oahu,Honolulu,21.404,-158.1765
Head Start,,Kipapa El.,95-076 Kipapa Dr,Mililani,HI,96789,Oahu,Honolulu,21.4613,-158.0125
Head Start,,KMCBH,257 Reed Rd,Kailua,HI,96734,Oahu,Honolulu,21.4503,-157.7589
Head Start,,Kuhio El.,2759 S King St,Honolulu,HI,96826,Oahu,Honolulu,21.2897,-157.8196
Head Start,,Kunia,92-1750 Kunia Dr,Kunia,HI,96759,Oahu,Honolulu,21.4505,-158.0602
Head Start,,Laie El.,55-109 Kulanui St,Laie,HI,96762,Oahu,Honolulu,21.6497,-157.9253
Head Start,,Lanakila El.,717 N Kuakini St,Honolulu,HI,96817,Oahu,Honolulu,21.3272,-157.8601
Head Start,,Lanakila Park,1701 Lanakila Ave,Honolulu,HI,96817,Oahu,Honolulu,21.3272,-157.861
Head Start,,Linapuni Elementary,1434 Linapuni St,Honolulu,HI,96819,Oahu,Honolulu,21.3388,-157.8776
Head Start,,Makaha El.,84-200 Ala Naauao Pl.,Waianae,HI,96792,Oahu,Honolulu,21.4702,-158.2119
Head Start,,Makakilo,92-675 Anipeahi St,Kapolei,HI,96707,Oahu,Honolulu,21.3444,-158.0849
Head Start,,Maunawili El.,1465 Ulupii St,Kailua,HI,96734,Oahu,Honolulu,21.3769,-157.7525
Head Start,,Nanakuli,89-195 Farrington Hwy,Waianae,HI,96792,Oahu,Honolulu,21.3802,-158.1442
Head Start,,Palolo El.,2106 10th Ave,Honolulu,HI,96816,Oahu,Honolulu,21.3,-157.7918
Head Start,,Pauoa El.,2301 Pauoa Rd,Honolulu,HI,96813,Oahu,Honolulu,21.3185,-157.8438
Head Start,,Pohakea El.,91-750 Fort Weaver Rd,Ewa Beach,HI,96706,Oahu,Honolulu,21.316,-158.0099
Head Start,,Puohala El.,45-233 Kulauli St,Kaneohe,HI,96744,Oahu,Honolulu,21.4098,-157.7908
Head Start,,Puuhale El.,345 Puuhale Rd,Honolulu,HI,96819,Oahu,Honolulu,21.3281,-157.8845
Head Start,,Queen Kaahumanu El.,1141 Kinau St,Honolulu,HI,96814,Oahu,Honolulu,21.3028,-157.8438
Head Start,,Salt Lake El.,1131 Ala Lilikoi St,Honolulu,HI,96818,Oahu,Honolulu,21.351,-157.9123
Head Start,,Ulu Ke Kukui,87-576 Kulaaupuni St,Waianae,HI,96792,Oahu,Honolulu,21.4165,-158.1733
Head Start,,Wahiawa El.,1402 Glen Ave,Wahiawa,HI,96786,Oahu,Honolulu,21.5043,-158.0177
Head Start,,Wahiawa UMC,1445 California Ave,Wahiawa,HI,96786,Oahu,Honolulu,21.5024,-158.0145
Head Start,,Waianae El.,85-220 McArthur St,Waianae,HI,96792,Oahu,Honolulu,21.4462,-158.1845
Early Head Start,,EHS East I,92-1750 Kunia Drive,Kunia,HI,96759,Oahu,Honolulu,21.4616421,-158.0640649
Early Head Start,,Hale Hiipoi,4111 Hana Highway,Hana,HI,96713,Maui,Maui,20.7769,-155.9996
Early Head Start,,Easter Seals,49 Kaiulani St,Hilo,HI,96720,Hawaii,Hawaii,19.7241,-155.0925
Early Head Start,,Greenwell Child Development Center,81-6493 Mamalahoa Highway,Kealakekua,HI,96750,Hawaii,Hawaii,19.5063,-155.9211
Early Head Start,,Hilo EHS Home Base,27 Waianuenue Ave,Hilo,HI,96720,Hawaii,Hawaii,19.7261,-155.0871
Early Head Start,,Ka'u Cluster,95-1163 Kaalaiki Rd. #120,Naalehu,HI,96772,Hawaii,Hawaii,19.086,-155.5717
Early Head Start,,Kona Clusters,75-127 Lunapule Rd Ste 11,Kailua Kona,HI,96740,Hawaii,Hawaii,19.6265,-155.9863
Early Head Start,,Early Head Start Home Base,2970 Kele St Ste 203,Lihue,HI,96766,Kauai,Kauai,21.9749,-159.3692
Early Head Start,,EHS IT at Kauai,3343 Kanakolu St,Lihue,HI,96766,Kauai,Kauai,21.9848,-159.371
Head Start,,Lihue Head Start,3343 Kanakolu St,Lihue,HI,96766,Kauai,Kauai,21.9848,-159.371
Early Head Start,,MFSS EHS Kupukupu Child Development Program-Lahaina,15 Ipu Aumakua Ln,Lahaina,HI,96761,Maui,Maui,20.8692,-156.6673
Early Head Start,,MFSS EHS Main Office & Kupukupu Child Development Center-Wailuku,1844 Wili Pa Loop,Wailuku,HI,96793,Maui,Maui,20.8935,-156.5006
Early Head Start,,Waiale Site,670 Waiale Rd Bldg 8,Wailuku,HI,96793,Maui,Maui,20.875,-156.4988
Head Start,,Haiku Head Start,97 Pauwela Road,Haiku,HI,96708,Maui,Maui,20.9295,-156.3217
Early Head Start,,Waimea Cluster,67-1185 Mamalahoa Hwy Unit H147,Kamuela,HI,96743,Hawaii,Hawaii,20.0203,-155.667
Head Start,,Kahului A and B,615 S Papa Ave,Kahului,HI,96732,Maui,Maui,20.8738,-156.4804
Head Start,,Hilo Child Development Center (HCDC),2133 Waianuenue Ave,Hilo,HI,96720,Hawaii,Hawaii,19.7145,-155.1384
Head Start,,Kalanianaole Elementary,27-330 Old Mamalahoa Hwy,Papaikou,HI,96781,Hawaii,Hawaii,19.8256,-155.0961
Head Start,,Head Start Home Base,2970 Kele St Ste 203,Lihue,HI,96766,Kauai,Kauai,21.9739,-159.3688
Head Start,,Kihei,250 E Lipoa St,Kihei,HI,96753,Maui,Maui,20.7469,-156.4475
Head Start,,Lahaina,816 Niheu St,Lahaina,HI,96761,Maui,Maui,20.8862,-156.6639
Head Start,,Kaunakakai,380 Kolapa Place,Kaunakakai,HI,96748,Molokai,Maui,21.0903,-157.0159
Head Start,,Keauhou,78-6804 Mamalahoa Hwy,Holualoa,HI,96725,Hawaii,Hawaii,19.5772,-155.9437
Head Start,,Keonepoko Pre-Plus Elementary,15-890 Kahakai Blvd,Pahoa,HI,96778,Hawaii,Hawaii,19.5258,-154.9267
Head Start,,Kapaa Head Start,4886 Kawaihau Rd,Kapaa,HI,96746,Kauai,Kauai,22.0895,-159.3139
Head Start,,Kekaha Head Start,8563 Elepaio Rd,Kekaha,HI,96752,Kauai,Kauai,21.9633,-159.7068
Head Start,,Koloa Head Start,3223 Poipu Rd,Koloa,HI,96756,Kauai,Kauai,21.8786,-159.4607
Head Start,,Makawao A and B,931B Makawao Ave,Makawao,HI,96768,Maui,Maui,20.8515,-156.3175
Head Start,,UHMC,310 W Kaahumanu Ave,Wailuku,HI,96793,Maui,Maui,20.8913,-156.481
Head Start,,Mt. View PrePlus Elementary,18-1235 Volcano Hwy,Mountain View,HI,96771,Hawaii,Hawaii,19.5575,-155.1056
Head Start,,Puueo,145 Wainaku St,Hilo,HI,96720,Hawaii,Hawaii,19.7336,-155.0933
Head Start,,Waiau El.,98-450 Hookanike St,Pearl City,HI,96782,Oahu,Honolulu,21.3984,-157.9537
Head Start,,Waimalu,98-825 Moanalua Rd # P8,Aiea,HI,96701,Oahu,Honolulu,21.3901,-157.9505
Head Start,,Waimanalo El.,41-1350 Kalanianaole Hwy,Waimanalo,HI,96795,Oahu,Honolulu,21.3335,-157.6981
Head Start,,Waipahu El.,94-465 Waipahu St,Waipahu,HI,96797,Oahu,Honolulu,21.3856,-158.0159
Head Start and Early Head Start,,Kahauiki Village,2325 N Nimitz Highway,Honolulu,HI,96819,Oahu,Honolulu,21.3303,-157.8875
Head Start and Early Head Start,,HCAP Head Start & Early Head Start,94-810 Moloalo St Suite 200,Waipahu,HI,96797,Oahu,Honolulu,21.38438626,-158.0044032
Head Start and Early Head Start,,Kuhio Park Terrace (EHS and HS),1485 Linapuni St Rm 105,Honolulu,HI,96819,Oahu,Honolulu,21.3381,-157.8769
Head Start and Early Head Start,,Hawaiian Beaches,15-360 Puni Makai Loop N,Pahoa,HI,96778,Hawaii,Hawaii,19.5493,-154.9022
Head Start,,Wailuku A,670 Waiale Rd,Wailuku,HI,96793,Maui,Maui,20.875,-156.4988
Head Start,,Wailuku B,355 S High St,Wailuku,HI,96793,Maui,Maui,20.8826,-156.5052
Higher Education,University,Brigham Young University Hawaii,55-220 Kulanui St,Laie,HI,96762,Oahu,Honolulu,21.64191475,-157.9267453
Higher Education,University,Chaminade University of Honolulu,3140 Waialae Avenue,Honolulu,HI,96816,Oahu,Honolulu,21.29011032,-157.8077474
Higher Education,University,Hawaii Pacific University - Downtown,1 Aloha Tower Dr,Honolulu,HI,96813,Oahu,Honolulu,21.30657502,-157.865593
Higher Education,University,Hawaii Pacific University - Hawaii Loa,45-045 Kamehameha Highway,Kaneohe,HI,96744,Oahu,Honolulu,21.37903486,-157.7818304
Higher Education,University,Hawaii Pacific University - Makapuu,41-202 Kalanianaole Highway,Waimanalo,HI,96795,Oahu,Honolulu,21.31497163,-157.6647274
Higher Education,Community College,Hawaii Community College,1175 Manono Street,Hilo,HI,96720,Hawaii,Hawaii,19.70476935,-155.0696711
Higher Education,University Center,Hawaii Community College - Palamanui,73-4225 Ane Keohokalole Highway,Kailua-Kona,HI,96740,Hawaii,Hawaii,19.73967284,-156.0129202
Higher Education,Community College,Honolulu Community College,874 Dillingham Blvd,Honolulu,HI,96817,Oahu,Honolulu,21.32069309,-157.8697352
Higher Education,University,John A. Burns School of Medicine,651 Ilalo St,Honolulu,HI,96813,Oahu,Honolulu,21.29648246,-157.8636531
Higher Education,Community College,Kapiolani Community College,4303 Diamond Head Rd,Honolulu,HI,96816,Oahu,Honolulu,21.27044085,-157.8001737
Higher Education,Community College,Kauai Community College,3-1901 Kaumualii Highway,Lihue,HI,96766,Kauai,Kauai,21.96907466,-159.3963155
Higher Education,Education Center,Ko Education Center (North Hawaii Education and Research Center),45-539 Plumeria St,Honokaa,HI,96727,Hawaii,Hawaii,20.07705538,-155.4695826
Higher Education,Community College,Leeward Community College,96-045 Ala Ike St,Pearl City,HI,96782,Oahu,Honolulu,21.39307285,-157.9852275
Higher Education,Community Schools for Adults,McKinley Community School (MCSA),634 Pensacola Street,Honolulu,HI,96814,Oahu,Honolulu,21.29734545,-157.8474808
Higher Education,Community Schools for Adults,MCSA-Farrington Campus,1564 N. King Street,Honolulu,HI,96817,Oahu,Honolulu,21.33046601,-157.8730151
Higher Education,Community Schools for Adults,MCSA-Kauai Campus,"3607A Lala Road, P-12",Lihue,HI,96766,Kauai,Kauai,21.95898471,-159.3602713
Higher Education,Community Schools for Adults,MCSA-Maui Campus,179 W Kaahumanu Avenue,Kahului,HI,96732,Maui,Maui,20.88851641,-156.4718359
Higher Education,Community Schools for Adults,MCSA-Moanalua Campus,2825-A Ala Ilima Street,Honolulu,HI,96818,Oahu,Honolulu,21.34705663,-157.900123
Higher Education,Education Center,Molokai Education Center,"375 Kamehameha V Highway, PO Box 440",Kaunakakai,HI,96748,Molokai,Maui,21.08588329,-157.0132226
Higher Education,Education Center,Molokai Farm Education Center,"526 Huaai Road, PO Box 511",Hoolehua,HI,96729,Molokai,Maui,21.14026497,-157.0936036
Higher Education,Education Center,UHMC - Hana Education Center,"5101 Uakea Rd, Rm 10 & Rm 12, PO Box 70",Hana,HI,96713,Maui,Maui,20.75344019,-155.9840745
Higher Education,Education Center,UHMC - Lahaina Education Center,60 Kenui St,Lahaina,HI,96761,Maui,Maui,20.8816612,-156.6827062
Higher Education,Education Center,UHMC - Lanai Education Center,"329 7th Street, PO Box 630648",Lanai City,HI,96763,Lanai,Maui,20.82578543,-156.9209397
Higher Education,Community College,UHMC - Maui Community College,310 West Kaahumanu Avenue,Kahului,HI,96732,Maui,Maui,20.89049576,-156.4794949
Higher Education,University Center,University Center - Kauai,3-1901 Kaumualii Highway,Lihue,HI,96766,Kauai,Kauai,21.96907466,-159.3963155
Higher Education,University Center,University Center - Maui,310 West Kaahumanu Avenue,Kahului,HI,96732,Maui,Maui,20.89049576,-156.4794949
Higher Education,Education Center,University Center - West Hawaii,73-4225 Ane Keohokalole Highway,Kailua-Kona,HI,96740,Hawaii,Hawaii,19.73967284,-156.0129202
Higher Education,University,University of Hawaii at Manoa,2500 Campus Road,Honolulu,HI,96822,Oahu,Honolulu,21.29998338,-157.81481
Higher Education,University,University of Hawaii Hilo,200 W. Kawili St,Hilo,HI,96720,Hawaii,Hawaii,19.69993645,-155.0853568
Higher Education,University,University of Hawaii West Oahu,91-1001 Farrington Hwy,Kapolei,HI,96707,Oahu,Honolulu,21.35570524,-158.0566835
Higher Education,Education Center,Waianae Moku Education Center,87-380 Kulaaupuni St,Waianae,HI,96792,Oahu,Honolulu,21.41895049,-158.1732263
Higher Education,Community Schools for Adults,Waipahu Community School (WCSA),94-1211 Farrington Highway,Waipahu,HI,96797,Oahu,Honolulu,21.38836584,-157.9933253
Higher Education,Community Schools for Adults,WCSA-Hilo Campus,155 W. Kawili St. P27,Hilo,HI,96720,Hawaii,Hawaii,19.69846368,-155.077101
Higher Education,Community Schools for Adults,WCSA-Kona Campus,"74-5062 Onipaa Street, F-2",Kailua-Kona,HI,96740,Hawaii,Hawaii,19.66928963,-155.9839686
Higher Education,Community Schools for Adults,WCSA-Wahiawa Campus,1515 California Avenue,Wahiawa,HI,96786,Oahu,Honolulu,21.50203436,-158.0133556
Higher Education,Community Schools for Adults,WCSA-Windward Campus,730 Iliaina Street,Kailua,HI,96734,Oahu,Honolulu,21.40908808,-157.7570821
Higher Education,Community College,Windward Community College,45-720 Keaahala Rd,Kaneohe,HI,96744,Oahu,Honolulu,21.40792981,-157.8122254
Medical Facility,Hospital,Wahiawa General Hospital,128 Lehua Street,Wahiawa,HI,96786,Oahu,Honolulu,21.498877,-158.0262543
Medical Facility,Community Health Center,Hamakua-Kohala Health Center - Honokaa Clinic,45-549 Plumeria St,Honokaa,HI,96727,Hawaii,Hawaii,20.0758332,-155.4700295
Medical Facility,Community Health Center,Hamakua-Kohala Health Center - Kohala Clinic,53-3925 Akoni Pule Highway,Kapaau,HI,96755,Hawaii,Hawaii,20.23114739,-155.7969161
Medical Facility,Community Health Center,Hamakua-Kohala Health Center - Laupahoehoe Clinic,35-2065 Old Mamalahoa Highway,Laupahoehoe,HI,96743,Hawaii,Hawaii,19.97960513,-155.2276043
Medical Facility,Community Health Center,Hamakua-Kohala Health Center - Waimea Clinic,65-1190 Mamalahoa Highway,Waimea,HI,96743,Hawaii,Hawaii,20.02099362,-155.6685763
Medical Facility,Community Health Center,Hana Health,4590 Hana Highway,Haiku,HI,96713,Maui,Maui,20.7635539,-155.9945557
Medical Facility,Public Health Nursing Center,Lanakila Health Center,1700 Lanakila Ave,Honolulu,HI,96817,Oahu,Honolulu,21.32794591,-157.8614119
Medical Facility,Family Guidance Center,East Hawaii Family Guidance Center,88 Kanoelehua Ave Suite B-107,Hilo,HI,96720,Hawaii,Hawaii,19.72155564,-155.0647138
Medical Facility,Family Guidance Center,West Hawaii Family Guidance Center - Kona,75-5722 Kuakini Hwy Suite 201,Kailua-Kona,HI,96740,Hawaii,Hawaii,19.63958906,-155.9915812
Medical Facility,Family Guidance Center,West Hawaii Family Guidance Center - Waimea,65-1230 Mamalahoa Hwy Suite A-11,Kamuela,HI,96743,Hawaii,Hawaii,20.01922303,-155.6711094
Medical Facility,Family Guidance Center,Leeward Oahu Family Guidance Center,601 Kamokila Blvd Suite 355,Kapolei,HI,96707,Oahu,Honolulu,21.33127973,-158.0837407
Medical Facility,Family Guidance Center,Maui Family Guidance Center - Wailuku,270 Waiehu Beach Rd Suite 213,Wailuku,HI,96793,Maui,Maui,20.90348877,-156.4827126
Medical Facility,Family Guidance Center,Maui Family Guidance Center - Molokai,65 Makaena Pl,Kaunakakai,HI,96748,Molokai,Maui,21.09062761,-157.0221573
Medical Facility,Family Guidance Center,Kauai Family Guidance Center,3059 Umi St Room A-014,Lihue,HI,96766,Kauai,Kauai,21.97565194,-159.3664861
Medical Facility,Public Health Nursing Center,Naalehu Health Center,94-5669 Mamalahoa Hwy,Naalehu,HI,96772,Hawaii,Hawaii,,
Medical Facility,Community Health Center,"Kalihi-Palama Health Center - Behavioral Health, Medical, Health Education & Pharmacy",952 North King Street,Honolulu,HI,96817,Oahu,Honolulu,21.3236261,-157.8679334
Medical Facility,Community Health Center,HICHC Administration East,450 Kilauea Avenue,Hilo,HI,96720,Hawaii,Hawaii,19.7191087,-155.0826339
Medical Facility,Community Health Center,HICHC Administration West,75-5751 Kuakini Highway,Kailua-Kona,HI,96740,Hawaii,Hawaii,19.6386624,-155.9903608
Medical Facility,Community Health Center,HICHC Hilo Family Dental,1257 Kilauea Avenue Suite 100,Hilo,HI,96720,Hawaii,Hawaii,19.7102475,-155.0761296
Medical Facility,Community Health Center,HICHC Hilo Family Health,1178 Kinoole Street Bldg B,Hilo,HI,96720,Hawaii,Hawaii,19.7102336,-155.0797935
Medical Facility,Community Health Center,HICHC Hilo Keiki Health,450 Kilauea Avenue Suite 103,Hilo,HI,96720,Hawaii,Hawaii,19.7190052,-155.0827144
Medical Facility,Community Health Center,HICHC Hilo Women's Health,73 Puuhonu Place,Hilo,HI,96720,Hawaii,Hawaii,19.7167782,-155.0977724
Medical Facility,Community Health Center,HICHC Kau Family Health and Dental,95-5583 Mamalahoa Highway,Naalehu,HI,96772,Hawaii,Hawaii,19.0606541,-155.5827828
Medical Facility,Community Health Center,HICHC Keaau Family Health and Dental,16-192 Pili Mua Street,Keaau,HI,96749,Hawaii,Hawaii,19.6207592,-155.0393657
Medical Facility,Community Health Center,HICHC Kealakehe Family Health and Dental,74-5214 Keanalehu Drive,Kailua-Kona,HI,96740,Hawaii,Hawaii,19.6660757,-155.9939891
Medical Facility,Community Health Center,HICHC Kealakekua Family Health,81-980 Halekii Street,Kealakekua,HI,96750,Hawaii,Hawaii,19.5175617,-155.9217475
Medical Facility,Community Health Center,HICHC Kuakini Family Health,75-5751 Kuakini Highway,Kailua-Kona,HI,96740,Hawaii,Hawaii,19.6386295,-155.9902253
Medical Facility,Community Health Center,HICHC Pahoa Family Health,15-2866 Pahoa Village Road Bldg C,Pahoa,HI,96778,Hawaii,Hawaii,19.4949053,-154.9490438
Medical Facility,Community Health Center,HICHC Pahoa Women's and Keiki Health,15-2866 Pahoa Village Road Bldg F,Pahoa,HI,96778,Hawaii,Hawaii,19.494617,-154.948789
Medical Facility,Community Health Center,HICHC Waikoloa Family Dental,68-1845 Waikoloa Road,Waikoloa Village,HI,96738,Hawaii,Hawaii,19.9285526,-155.7870026
Medical Facility,Community Health Center,HICHC Waikoloa Family Health,68-1845 Waikoloa Road,Waikoloa Village,HI,96738,Hawaii,Hawaii,19.928482,-155.7870134
Medical Facility,Community Health Center,Kalihi-Palama Health Center - Comprehensive Primary Health Care,710 North King Street,Honolulu,HI,96817,Oahu,Honolulu,21.3206774,-157.8656642
Medical Facility,Community Health Center,Kalihi-Palama Health Center - Downtown,89 South King Street,Honolulu,HI,96813,Oahu,Honolulu,21.3092916,-157.8623791
Medical Facility,Community Health Center,Kalihi-Palama Health Center - Kaaahi Clinic,546 Kaaahi Street,Honolulu,HI,96817,Oahu,Honolulu,21.3177812,-157.8658587
Medical Facility,Community Health Center,Kalihi-Palama Health Center - Kohou Clinic,904 Kohou Street Suite 306,Honolulu,HI,96817,Oahu,Honolulu,21.3247858,-157.8708697
Medical Facility,Community Health Center,Kalihi-Palama Health Center - Main Campus,915 North King Street,Honolulu,HI,96817,Oahu,Honolulu,21.3228397,-157.868272
Medical Facility,Community Health Center,Kalihi-Palama Health Center - Optometry,888 North King Street,Honolulu,HI,96817,Oahu,Honolulu,21.3227685,-157.8674814
Medical Facility,Community Health Center,Kauai Community Health Center - Ho'ola Admin Office,4491 Rice Street Suite 106,Lihue,HI,96766,Kauai,Kauai,21.9751887,-159.3706799
Medical Facility,Community Health Center,Kauai Community Health Center - Kapaa,4800D Kawaihau Road,Kapaa,HI,96746,Kauai,Kauai,22.08746314,-159.3105155
Medical Facility,Community Health Center,Kauai Community Health Center - Waimea,4643B Waimea Canyon Drive,Waimea,HI,96796,Kauai,Kauai,21.96127873,-159.6711212
Medical Facility,Community Health Center,Kokua Kalihi Valley Comprehensive Family Services,2239 North School Street,Honolulu,HI,96819,Oahu,Honolulu,21.3406845,-157.8746154
Medical Facility,Community Health Center,Kokua Kalihi Valley - Elder Care Center,1846 Gulick Ave,Honolulu,HI,96819,Oahu,Honolulu,21.34166723,-157.8691959
Medical Facility,Community Health Center,Koolauloa Health Center - Hauula,54-316 Kamehameha Hwy Suite 6,Hauula,HI,96717,Oahu,Honolulu,21.6201371,-157.9164769
Medical Facility,Community Health Center,Koolauloa Health Center - Kahuku,56-119 Pualalea St,Kahuku,HI,96731,Oahu,Honolulu,21.6760768,-157.9534346
Medical Facility,Community Health Center,Lanai Community Health Center,333 Sixth Street,Lanai City,HI,96763,Lanai,Maui,20.8267724,-156.9213693
Medical Facility,Community Health Center,Malama I Ke Ola Health Center - Lahaina Satellite,15 Ipu Aumakua Lane,Lahaina,HI,96761,Maui,Maui,20.869166,-156.6668531
Medical Facility,Community Health Center,Malama I Ke Ola Health Center - Main Clinic,1881 Nani St,Wailuku,HI,96793,Maui,Maui,20.8886506,-156.4994126
Medical Facility,Community Health Center,Malama I Ke Ola Health Center - Wailuku Satellite,670 A Waiale Road,Wailuku,HI,96793,Maui,Maui,20.8750291,-156.4988064
Medical Facility,Community Health Center,Molokai Community Health Center,30 Oki Place,Kaunakakai,HI,96748,Molokai,Maui,21.0859959,-157.0192034
Medical Facility,Community Health Center,Wahiawa Health,302 California Ave. Suite 106,Wahiawa,HI,96786,Oahu,Honolulu,21.4956851,-158.0312861
Medical Facility,Community Health Center,Waianae Coast Comprehensive Health Center - Main Campus,86-260 Farrington Highway,Waianae,HI,96792,Oahu,Honolulu,21.4301074,-158.1792704
Medical Facility,Community Health Center,Waianae Coast Comprehensive Health Center - Nanakuli Clinic,89-102 Farrington Highway Suite 300,Waianae,HI,96792,Oahu,Honolulu,21.3818557,-158.1432924
Medical Facility,Community Health Center,Waianae Coast Comprehensive Health Center - Waiola Clinic,86-120 Farrington Highway Suite C305-A,Waianae,HI,96792,Oahu,Honolulu,21.4361764,-158.1842607
Medical Facility,Community Health Center,Waikiki Health - Ohua Clinic,277 Ohua Avenue,Honolulu,HI,96815,Oahu,Honolulu,21.2755686,-157.8205083
Medical Facility,Native Hawaiian Community Health Center,Hui Malama Ola Na Oiwi,82 Puuhonu Place Suite 209,Hilo,HI,96720,Hawaii,Hawaii,19.71704411,-155.09833
Medical Facility,Native Hawaiian Community Health Center,Hui No Ke Ola Pono - Hana,5101 Uakea Road Room D18,Hana,HI,96713,Maui,Maui,20.75345078,-155.9840477
Medical Facility,Native Hawaiian Community Health Center,Hui No Ke Ola Pono - Wailuku,95 Mahalani St. Room #21,Wailuku,HI,96793,Maui,Maui,20.88700809,-156.4883451
Medical Facility,Native Hawaiian Community Health Center,Ke Ola Mamo Clinic,321 North Kuakini St Suite 308,Honolulu,HI,96817,Oahu,Honolulu,21.32160723,-157.8563735
Medical Facility,Native Hawaiian Community Health Center,Na Puuwai,604 Mauna Loa Hwy,Kaunakakai,HI,96748,Molokai,Maui,21.09690214,-157.034599
Medical Facility,Critical Access Hospital,Hale Hoola Hamakua,45-547 Plumeria Street,Honokaa,HI,96727,Hawaii,Hawaii,20.0763522,-155.4696996
Medical Facility,Critical Access Hospital,Kahuku Medical Center,56-117 Pualalea Street,Kahuku,HI,96731,Oahu,Honolulu,21.6765242,-157.9543398
Medical Facility,Critical Access Hospital,Kau Hospital,1 Kamani Street,Pahala,HI,96777,Hawaii,Hawaii,19.1996226,-155.472072
Medical Facility,Critical Access Hospital,Kauai Veterans Memorial Hospital,4643 Waimea Canyon Road,Waimea,HI,96796,Kauai,Kauai,21.960408,-159.6706169
Medical Facility,Critical Access Hospital,Kohala Hospital,54-383 Hospital Road,Kapaau,HI,96755,Hawaii,Hawaii,20.2325092,-155.7966633
Medical Facility,Critical Access Hospital,Kula Hospital,100 Keokea Place,Kula,HI,96790,Maui,Maui,20.7012696,-156.3572025
Medical Facility,Critical Access Hospital,Lanai Community Hospital,628 7th Street,Lanai City,HI,96763,Lanai,Maui,20.8258886,-156.9171542
Medical Facility,Critical Access Hospital,Molokai General Hospital,280 Home Olu Place,Kaunakakai,HI,96748,Molokai,Maui,21.0940641,-157.0173768
Medical Facility,Critical Access Hospital,Samuel Mahelona Memorial Hospital,4800 Kawaihau Road,Kapaa,HI,96746,Kauai,Kauai,22.0874041,-159.3127077
Medical Facility,Hospital,Adventist Health Castle,640 Ulukahiki Street,Kailua,HI,96734,Oahu,Honolulu,21.3808542,-157.7577805
Medical Facility,Hospital,Hawaii State Hospital,45-710 Keaahala Road,Kaneohe,HI,96744,Oahu,Honolulu,21.4050303,-157.8159967
Medical Facility,Hospital,Hilo Medical Center,1190 Waianuenue Avenue,Hilo,HI,96720,Hawaii,Hawaii,19.7182225,-155.112929
Medical Facility,Hospital,Kahi Mohala,91-2301 Fort Weaver Road,Ewa Beach,HI,96706,Oahu,Honolulu,21.3736193,-158.0322464
Medical Facility,Hospital,Kaiser Foundation Hospital,3288 Moanalua Road,Honolulu,HI,96819,Oahu,Honolulu,21.3632867,-157.9000959
Medical Facility,Hospital,Kapiolani Medical Center for Women and Children,1319 Punahou Street,Honolulu,HI,96826,Oahu,Honolulu,21.2998407,-157.83346
Medical Facility,Hospital,Kona Community Hospital,79-1019 Haukapila Street,Kealakekua,HI,96750,Hawaii,Hawaii,19.5200872,-155.9174734
Medical Facility,Hospital,Kuakini Medical Center,347 North Kuakini Street,Honolulu,HI,96817,Oahu,Honolulu,21.3221588,-157.8568994
Medical Facility,Hospital,Leahi Hospital,3675 Kilauea Avenue,Honolulu,HI,96816,Oahu,Honolulu,21.2732481,-157.801604
Medical Facility,Hospital,Maui Memorial Medical Center,221 Mahalani Street,Wailuku,HI,96793,Maui,Maui,20.8849312,-156.4896768
Medical Facility,Hospital,Pali Momi Medical Center,98-1079 Moanalua Road,Aiea,HI,96701,Oahu,Honolulu,21.3836315,-157.9382988
Medical Facility,Hospital,Queens North Hawaii Community Hospital,67-1125 Mamalahoa Highway,Kamuela,HI,96743,Hawaii,Hawaii,20.0222379,-155.6645437
Medical Facility,Hospital,Rehabilitation Hospital of the Pacific,226 North Kuakini Street,Honolulu,HI,96817,Oahu,Honolulu,21.3214998,-157.8544163
Medical Facility,Hospital,Shriners Hospital for Children,1310 Punahou Street,Honolulu,HI,96826,Oahu,Honolulu,21.3006885,-157.835392
Medical Facility,Hospital,Straub Clinic and Hospital,888 South King Street,Honolulu,HI,96813,Oahu,Honolulu,21.3025452,-157.8507094
Medical Facility,Hospital,The Queens Medical Center,1301 Punchbowl Street,Honolulu,HI,96813,Oahu,Honolulu,21.3079135,-157.8535968
Medical Facility,Hospital,The Queens Medical Center - West Oahu,91-2141 Fort Weaver Road,Ewa Beach,HI,96706,Oahu,Honolulu,21.3724853,-158.0267894
Medical Facility,Hospital,Wilcox Memorial Hospital,3-3420 Kuhio Highway,Lihue,HI,96766,Kauai,Kauai,21.985558,-159.3657232
Medical Facility,Rural Health Clinic,Castle Health Clinic of Laie,55-510 Kamehameha Highway Suite 5,Laie,HI,96762,Oahu,Honolulu,21.6467877,-157.9222517
Medical Facility,Rural Health Clinic,East Hawaii Health Clinic at 1190 Waianuenue,1190 Waianuenue Avenue First Floor,Hilo,HI,96720,Hawaii,Hawaii,19.7178993,-155.1131033
Medical Facility,Rural Health Clinic,East Hawaii Health Clinic at Keaau,16-523 Keaau Pahoa Road,Keaau,HI,96749,Hawaii,Hawaii,19.623796,-155.0400416
Medical Facility,Rural Health Clinic,East Hawaii Health Clinic at Puuhonu Way,75 Puuhonu Place Suite 100,Hilo,HI,96720,Hawaii,Hawaii,19.7158604,-155.096658
Medical Facility,Rural Health Clinic,Five Mountains Hawaii Inc.,64-1035 Mamalahoa Highway Suite F-G,Kamuela,HI,96743,Hawaii,Hawaii,20.0248499,-155.6588466
Medical Facility,Rural Health Clinic,HHSC-Kauai Region Clinics Specialty Clinic at Kalaheo,2469 Puu Road Suite C,Kalaheo,HI,96741,Kauai,Kauai,21.9236055,-159.5270147
Medical Facility,Rural Health Clinic,HHSC-Kauai Region Clinics the Clinic at Kalaheo,4489 Papalina Road,Kalaheo,HI,96741,Kauai,Kauai,21.9251257,-159.5276839
Medical Facility,Rural Health Clinic,HHSC-Kauai Region Clinics the Clinic at Kapaa,4800 Kawaihau Road,Kapaa,HI,96746,Kauai,Kauai,22.0867218,-159.3109052
Medical Facility,Rural Health Clinic,HHSC-Kauai Region Clinics the Clinic at Poipu,2829 Ala Kalani Kaumaka Street Suite B201,Koloa,HI,96756,Kauai,Kauai,21.8848286,-159.4701019
Medical Facility,Rural Health Clinic,HHSC-Kauai Region Clinics the Clinic at Port Allen,4353 Waialo Road,Eleele,HI,96705,Kauai,Kauai,21.9018491,-159.5868967
Medical Facility,Rural Health Clinic,HHSC-Kauai Region Clinics the Clinic at Waimea,4643 Waimea Canyon Drive Suite B,Waimea,HI,96796,Kauai,Kauai,21.9603707,-159.6706786
Medical Facility,Rural Health Clinic,Kahuku Clinic,56-565 Kamehameha Highway,Kahuku,HI,96731,Oahu,Honolulu,21.6776907,-157.9509455
Medical Facility,Rural Health Clinic,Kau Hospital Rural Health Clinic,1 Kamani Street,Pahala,HI,96777,Hawaii,Hawaii,19.1995656,-155.4720962
Medical Facility,Rural Health Clinic,Kihei Clinic,1279 South Kihei Road Suite 120,Kihei,HI,96753,Maui,Maui,20.7495792,-156.4544015
Medical Facility,Rural Health Clinic,Lahaina Clinic,910 Wainee Street,Lahaina,HI,96761,Maui,Maui,20.8792269,-156.6793737
Medical Facility,Rural Health Clinic,Molokai General Hospital Rural Health Clinic,280 Home Olu Place,Kaunakakai,HI,96748,Molokai,Maui,21.0936799,-157.017417
Medical Facility,Rural Health Clinic,Primary Care Clinic Rural Health Clinic,65-1267 Kawaihae Road,Kamuela,HI,96743,Hawaii,Hawaii,20.0215511,-155.6732388
Medical Facility,Rural Health Clinic,Puna Community Medical Center Rural Health Clinic,15-2662 Pahoa Village Road Suite 303-305,Pahoa,HI,96778,Hawaii,Hawaii,19.5053259,-154.9577013
Medical Facility,Rural Health Clinic,The Clinic at Kahuku Medical Center Rural Health Clinic,56-117 Pualalea Street,Kahuku,HI,96731,Oahu,Honolulu,21.6765217,-157.954258
Medical Facility,Rural Health Clinic,Women's Center Rural Health Clinic,67-1123 Mamalahoa Highway,Kamuela,HI,96743,Hawaii,Hawaii,20.0216003,-155.6732978
Medical Facility,Hospital,Tripler Army Medical Center,1 Jarrett White Rd,Honolulu,HI,96859,Oahu,Honolulu,21.35961656,-157.8925886
Medical Facility,Public Health Nursing Center,Wailuku Health Center,121 Mahalani St,Wailuku,HI,96793,Maui,Maui,20.88608986,-156.487929
Medical Facility,Public Health Nursing Center,Lahaina Comprehensive Health Center,1830 HONOAPIILANI HWY,Lahaina,HI,96793,Maui,Maui,20.90428841,-156.6841493
Medical Facility,Public Health Nursing Center,Kauai Public Health Nursing Branch,3040 Umi St,Lihue,HI,96766,Kauai,Kauai,21.97459853,-159.3662572
Medical Facility,Public Health Nursing Center,Molokai Public Health Nursing Branch,65 Makaena Pl Rm 107,Kaunakakai,HI,96748,Molokai,Maui,21.09062761,-157.0221573
Medical Facility,Public Health Nursing Center,Lanai Public Health Nursing Branch,905 Ilima Ave,Lanai City,HI,96763,Lanai,Maui,20.82364872,-156.919245
Medical Facility,Public Health Nursing Center,Hilo Public Health Nursing Branch,75 Aupuni St,Hilo,HI,96720,Hawaii,Hawaii,19.71842786,-155.0774123
Medical Facility,Public Health Nursing Center,Kona Health Center,79-1015 Haukapila St,Kealakekua,HI,96750,Hawaii,Hawaii,19.52067745,-155.9188367
Medical Facility,Public Health Nursing Center,Waimea Health Center,67-5189 Kamamalu St,Kamuela,HI,96743,Hawaii,Hawaii,20.02408584,-155.6622836
Medical Facility,Public Health Nursing Center,Windward Health Center / Family Guidance,45-691 Keaahala Rd Bldg B,Kaneohe,HI,96744,Oahu,Honolulu,21.40979894,-157.8116555
Medical Facility,Public Health Nursing Center,Waianae Neighborhood Community Center,85-670 Farrington Hwy Rm 7,Waianae,HI,96792,Oahu,Honolulu,21.45128376,-158.1903994
Medical Facility,Public Health Nursing Center,Waipahu Civic Center,94-275 Mokuola St Rm 101,Waipahu,HI,96797,Oahu,Honolulu,21.38588644,-158.0028886
Medical Facility,Public Health Nursing Center,Diamond Head Health Center / Family Guidance,3627 Kilauea Ave Rm 302,Honolulu,HI,96816,Oahu,Honolulu,21.2738801,-157.802822
Medical Facility,Public Health Nursing Center,Leeward Health Center / Family Guidance,860 Fourth St Rm 166,Pearl City,HI,96782,Oahu,Honolulu,21.39272783,-157.9697207
Medical Facility,Community Health Center,Waianae Coast Comprehensive Health Center - Ewa Clinic,91-1841 Fort Weaver Road,Ewa Beach,HI,96716,Oahu,Honolulu,21.354228,-158.0291658
Medical Facility,Community Health Center,Waianae Coast Comprehensive Health Center - Waipahu,94-428 Mokuola Street Suite 108B,Waipahu,HI,96797,Oahu,Honolulu,21.3871953,-158.0061001
Medical Facility,Community Health Center,Waianae Coast Comprehensive Health Center - West Oahu,599 Farrington Highway,Kapolei,HI,96707,Oahu,Honolulu,21.3394204,-158.0763978
Medical Facility,Community Health Center,Waikiki Health - Keauhou Shelter,1020 Isenberg Street,Honolulu,HI,96826,Oahu,Honolulu,21.2939058,-157.8257044
Medical Facility,Community Health Center,Waikiki Health - Makahiki Shelter,935 Makahiki Way,Honolulu,HI,96826,Oahu,Honolulu,21.293331,-157.827288
Medical Facility,Community Health Center,Waikiki Health - PATH Clinic,845 22nd Avenue,Honolulu,HI,96816,Oahu,Honolulu,21.2713985,-157.7920123
Medical Facility,Community Health Center,Waikiki Health - Youth Outreach,415 Keoniana Street,Honolulu,HI,96815,Oahu,Honolulu,21.2851143,-157.8319627
Medical Facility,Community Health Center,Waimanalo Health Center - Hale Ola Akahi,41-1347 Kalanianaole Hwy,Waimanalo,HI,96795,Oahu,Honolulu,21.3474356,-157.7163213
Medical Facility,Community Health Center,Waimanalo Health Center - Hale Ola Akolu Luluku,45-600 Kamehameha Hwy,Kaneohe,HI,96744,Oahu,Honolulu,21.4006955,-157.799997
Medical Facility,Community Health Center,Waimanalo Health Center - Hale Ola Alua,41-1295 Kalanianaole Hwy,Waimanalo,HI,96795,Oahu,Honolulu,21.347094,-157.7145303
Private School,Independent,Iolani School,563 Kamoku Street,Honolulu,HI,96826,Oahu,Honolulu,21.28469,-157.82393
Private School,Nondenominational,Hanalani Schools,94-294 Anania Drive,Mililani,HI,96789,Oahu,Honolulu,21.440914,-158.00925
Private School,Nondenominational,Hawai'i Pacific University,1 Aloha Tower Drive,Honolulu,HI,96813,Oahu,Honolulu,21.306555,-157.86563
Private School,Baptist,Hawaii Baptist Academy,420 Wyllie Street,Honolulu,HI,96817,Oahu,Honolulu,21.330017,-157.84746
Private School,Seventh-day Adventist,Hawaiian Mission Academy - 9-12 Campus,1438 Pensacola St,Honolulu,HI,96822,Oahu,Honolulu,21.305703,-157.84387
Private School,Seventh-day Adventist,Hawaiian Mission Academy - Windward Campus,160 Mookua Street,Kailua,HI,96734,Oahu,Honolulu,21.402387,-157.74145
Private School,Seventh-day Adventist,Hawaiian Mission Academy Ka Lama Iki,1415 Makiki Street,Honolulu,HI,96814,Oahu,Honolulu,21.301482,-157.83689
Private School,Independent,Ho'ala School,1067 A California Avenue,Wahiawa,HI,96786,Oahu,Honolulu,21.498121,-158.02301
Private School,Roman Catholic,Holy Family Catholic Academy,830 Main Street,Honolulu,HI,96818,Oahu,Honolulu,21.338664,-157.93035
Private School,Episcopal,Holy Nativity School,5286 Kalaniana'ole Highway,Honolulu,HI,96821,Oahu,Honolulu,21.278585,-157.75226
Private School,Buddhist,Hongwanji Mission School,1728 Pali Highway,Honolulu,HI,96813,Oahu,Honolulu,21.316601,-157.85344
Private School,Nondenominational,Honolulu Waldorf School,350 Ulua Street,Honolulu,HI,96821,Oahu,Honolulu,21.285546,-157.73459
Private School,Independent,Huakailani School for Girls,45-035 Kaneohe Bay Drive,Kaneohe,HI,96744,Oahu,Honolulu,21.410674,-157.77932
Private School,Nondenominational,Island Pacific Academy,909 Haumea Street,Kapolei,HI,96707,Oahu,Honolulu,21.332961,-158.08041
Private School,Christian,Kaimuki Christian School,1117 Koko Head Avenue,Honolulu,HI,96816,Oahu,Honolulu,21.281049,-157.79819
Private School,Protestant,Kamehameha Schools Kapalama,1887 Makuakane Street,Honolulu,HI,96817,Oahu,Honolulu,21.342174,-157.85492
Private School,Protestant,Kawaiaha'o Church School,872 Mission Lane,Honolulu,HI,96813,Oahu,Honolulu,21.304062,-157.85832
Private School,Baptist,Ko'olau Baptist Academy,45-633 Keneke St.,Kaneohe,HI,96744,Oahu,Honolulu,21.404172,-157.80621
Private School,Independent,La Pietra - Hawaii School for Girls,2933 Poni Moi Road,Honolulu,HI,96815,Oahu,Honolulu,21.261252,-157.81595
Private School,Baptist,Lanakila Baptist Schools,94-1250 Waipahu Street,Waipahu,HI,96797,Oahu,Honolulu,21.393603,-158.00008
Private School,Nondenominational,Le Jardin Academy,917 Kalaniana'ole Highway,Kailua,HI,96734,Oahu,Honolulu,21.379265,-157.76793
Private School,Nondenominational,Maili Bible School,87-138 Gilipake Street,Waianae,HI,96792,Oahu,Honolulu,21.417132,-158.17591
Private School,Roman Catholic,"Mary, Star of the Sea Early Learning Center","4470 Aliikoa Street, #100",Honolulu,HI,96821,Oahu,Honolulu,21.279431,-157.78156
Private School,Roman Catholic,"Mary, Star of the Sea School",4469 Malia Street,Honolulu,HI,96821,Oahu,Honolulu,21.279303,-157.78124
Private School,Roman Catholic,Maryknoll School,1526 Alexander Street,Honolulu,HI,96822,Oahu,Honolulu,21.30092,-157.83043
Private School,Christian,Mid-Pacific Institute,2445 Kaala Street,Honolulu,HI,96822,Oahu,Honolulu,21.304886,-157.81719
Private School,Independent,Montessori Community School,1239 Nehoa Street,Honolulu,HI,96822,Oahu,Honolulu,21.30857,-157.83642
Private School,Christian,New Hope Christian School,"94-050 Farrington Hwy., Suite C-2",Waipahu,HI,96797,Oahu,Honolulu,21.377581,-158.0241
Private School,Roman Catholic,Our Lady of Good Counsel School,1530 Hoolana Street,Pearl City,HI,96782,Oahu,Honolulu,21.405215,-157.96435
Private School,Buddhist,Pacific Buddhist Academy,1754 Lusitana Street,Honolulu,HI,96813,Oahu,Honolulu,21.316175,-157.85122
Private School,Christian,Pearl Harbor Christian Academy,94-1044 Waipio Uka St.,Waipahu,HI,96797,Oahu,Honolulu,21.413292,-157.99909
Private School,Nondenominational,Punahou School,1601 Punahou Street,Honolulu,HI,96822,Oahu,Honolulu,21.304689,-157.82486
Private School,Roman Catholic,Rosary Preschool,94-1249 Lumikula St.,Waipahu,HI,96797,Oahu,Honolulu,21.409835,-157.99316
Private School,Roman Catholic,Sacred Hearts Academy,3253 Waialae Avenue,Honolulu,HI,96816,Oahu,Honolulu,21.28603,-157.80667
Private School,Roman Catholic,Saint Louis School,3142 Waialae Avenue,Honolulu,HI,96816,Oahu,Honolulu,21.289908,-157.80725
Private School,Lutheran,Saint Mark Lutheran School,45-725 Kamehameha Hwy.,Kaneohe,HI,96744,Oahu,Honolulu,21.408016,-157.79829
Private School,Roman Catholic,Saint Patrick School,3320 Harding Avenue,Honolulu,HI,96816,Oahu,Honolulu,21.28505,-157.8057
Private School,Roman Catholic,Saint Theresa School - Honolulu,712 North School Street,Honolulu,HI,96817,Oahu,Honolulu,21.324626,-157.86068
Private School,Independent,Soto Academy,"829 Pensacola Street, Rm. 201",Honolulu,HI,96814,Oahu,Honolulu,21.298567,-157.84605
Private School,Roman Catholic,St Anthony School Kailua,148 Makawao Street,Kailua,HI,96734,Oahu,Honolulu,21.400592,-157.73934
Private School,Episcopal,St. Andrew's Schools - Queen Emma Preschool,3019 Pali Highway,Honolulu,HI,96817,Oahu,Honolulu,21.337108,-157.83742
Private School,Episcopal,St. Andrew's Schools - The Prep,224 Queen Emma Square,Honolulu,HI,96813,Oahu,Honolulu,21.309885,-157.85742
Private School,Episcopal,St. Clement's School,1515 Wilder Avenue,Honolulu,HI,96822,Oahu,Honolulu,21.303313,-157.83477
Private School,Roman Catholic,St. Elizabeth School,99-310 Moanalua Road,Aiea,HI,96701,Oahu,Honolulu,21.3764475,-157.93027
Private School,Roman Catholic,St. John Vianney School,940 Keolu Drive,Kailua,HI,96734,Oahu,Honolulu,21.379537,-157.72925
Private School,Roman Catholic,St. Joseph Parish School,94-651 Farrington Hwy.,Waipahu,HI,96797,Oahu,Honolulu,21.382795,-158.00803
Private School,Roman Catholic,St. Michael School,67-340 Haona Street,Waialua,HI,96791,Oahu,Honolulu,21.569038,-158.12189
Private School,Roman Catholic,St. Philomena Early Learning Center,3300 Ala Laulani Street,Honolulu,HI,96818,Oahu,Honolulu,21.346102,-157.91415
Private School,Nondenominational,The Children's House,1840 Komo Mai Drive,Pearl City,HI,96782,Oahu,Honolulu,21.415139,-157.9627
Private School,Presbyterian,Trinity Christian School,875 Auloa Road,Kailua,HI,96734,Oahu,Honolulu,21.374981,-157.76435
Private School,Lutheran,Trinity Lutheran School,1611 California Avenue,Wahiawa,HI,96786,Oahu,Honolulu,21.501623,-158.01
Private School,Independent,Variety School of Hawaii,710 Palekaua Street,Honolulu,HI,96816,Oahu,Honolulu,21.263079,-157.79541
Private School,Church of the Nazarene,Waolani Judd Nazarene School,408 North Judd Street,Honolulu,HI,96817,Oahu,Honolulu,21.325308,-157.85225
Private School,Christian,"Asia Pacific International School, Hawaii Campus",54-230 Kamehameha Hwy.,Hauula,HI,96717,Oahu,Honolulu,21.615523,-157.91615
Private School,Independent,Assets School,One Ohana Nui Way,Honolulu,HI,96818,Oahu,Honolulu,21.340707,-157.93399
Private School,Christian,Calvary Chapel Christian School,98-1016 Komo Mai Dr.,Aiea,HI,96701,Oahu,Honolulu,21.399494,-157.94821
Private School,Congregational,Central Union Church Preschool & Kindergarten,1660 South Beretania Street,Honolulu,HI,96826,Oahu,Honolulu,21.298923,-157.83416
Private School,Roman Catholic,Chaminade University,3140 Waialae Avenue,Honolulu,HI,96816,Oahu,Honolulu,21.2908,-157.80584
Private School,,Chaminade University Montessori Laboratory School,3140 Waialae Ave.,Honolulu,HI,96816,Oahu,Honolulu,21.2908,-157.80584
Private School,Assembly of God,Christian Academy,3400 Moanalua Road,Honolulu,HI,96819,Oahu,Honolulu,21.365564,-157.90185
Private School,Lutheran,Cross Academy,98-1098 Moanalua Road,Aiea,HI,96701,Oahu,Honolulu,21.382901,-157.93691
Private School,Roman Catholic,Damien Memorial School,1401 Houghtailing Street,Honolulu,HI,96817,Oahu,Honolulu,21.330335,-157.86733
Private School,Baptist,Friendship Christian Schools,91-1130 Renton Rd,Ewa Beach,HI,96706,Oahu,Honolulu,21.337695,-158.03949
Private School,,Hale Keiki School,153 Bougainville Drive,Honolulu,HI,96818,Oahu,Honolulu,21.3562607,-157.93019
Private School,Independent,Hanahau'oli School,1922 Makiki Street,Honolulu,HI,96822,Oahu,Honolulu,21.30738,-157.83195
Private School,Episcopal,St. Andrew's Schools - The Priory,224 Queen Emma Square,Honolulu,HI,96813,Oahu,Honolulu,21.309885,-157.85742
Private School,Christian,Christian Liberty Academy,16-675 Milo Street,Keaau,HI,96749,Hawaii,Hawaii,19.62786,-155.02938
Private School,Congregational,Haili Christian School,190 Ululani Street,Hilo,HI,96720,Hawaii,Hawaii,19.7221682,-155.08852
Private School,Nondenominational,A Kula Hawaii,4551 Kapuna Rd.,Kilauea,HI,96754,Kauai,Kauai,22.18895,-159.36206
Private School,Independent,Aka'ula School,1000 Kalae Hwy.,Kualapuu,HI,96757,Molokai,Maui,21.157752,-157.02256
Private School,Independent,Carden Academy of Maui,55 Maka'ena Place,Pukalani,HI,96768,Maui,Maui,20.826955,-156.33081
Private School,Nondenominational,Doris Todd Christian Academy,519 Baldwin Avenue,Paia,HI,96779,Maui,Maui,20.90726,-156.35957
Private School,Lutheran,Emmanuel Lutheran School,520 One St.,Kahului,HI,96732,Maui,Maui,20.888366,-156.48185
Private School,Independent,Haleakala Waldorf School,4160 Lower Kula Road,Kula,HI,96790,Maui,Maui,20.765805,-156.32717
Private School,Roman Catholic,St. Anthony School,1618 Lower Main Street,Wailuku,HI,96793,Maui,Maui,20.892532,-156.4961
Private School,Independent,Hawaii Preparatory Academy,65-1692 Kohala Mountain Road,Kamuela,HI,96743,Hawaii,Hawaii,20.029886,-155.69729
Private School,Protestant,Kamehameha Schools Hawai'i,16-716 Volcano Road,Keaau,HI,96749,Hawaii,Hawaii,19.6173343,-155.04404
Private School,Seventh-day Adventist,Kohala Adventist School,55-3361 Akoni Pule Highway,Hawi,HI,96719,Hawaii,Hawaii,20.2386029,-155.83519
Private School,Independent,Kokua Academy,75-1048 Henry St.,Kailua Kona,HI,96740,Hawaii,Hawaii,19.648583,-155.98754
Private School,Seventh-day Adventist,Kona Adventist Christian School,82-1013 Kinue Road,Captain Cook,HI,96704,Hawaii,Hawaii,19.490825,-155.91034
Private School,Nondenominational,Kuleana Education Academy,74-4820 Mamalahoa Highway,Holualoa,HI,96725,Hawaii,Hawaii,19.68696,-155.97498
Private School,Christian,Makua Lani Christian Academy,74-4966 Kealakaa St.,Kailua-Kona,HI,96740,Hawaii,Hawaii,19.67766,-155.98808
Private School,Independent,Malamalama Waldorf School,15-1834 Makuu Drive,Keaau,HI,96749,Hawaii,Hawaii,19.5575059,-154.96873
Private School,Independent,Island School,3-1875 Kaumualii Highway,Lihue,HI,96766,Kauai,Kauai,21.9668169,-159.3963
Private School,Seventh-day Adventist,Kahili Adventist School,4-1132 Kuhio Hwy,Kapaa,HI,96746,Kauai,Kauai,22.069729,-159.31904
Private School,Christian,Kauai Christian Academy,4000 Kilauea Rd.,Kilauea,HI,96754,Kauai,Kauai,22.216462,-159.40505
Private School,Seventh-day Adventist,Hawaiian Mission Academy Maui,261 S. Puunene Avenue,Kahului,HI,96732,Maui,Maui,20.884761,-156.46382
Private School,Independent,"Horizons Academy of Maui, Inc.",2680 Wai Wai Place,Kihei,HI,96753,Maui,Maui,20.744497,-156.44905
Private School,Assembly of God,Ka'ahumanu Hou Christian School,777 Maui Veterans Hwy.,Kahului,HI,96732,Maui,Maui,20.876045,-156.45915
Private School,Protestant,Kamehameha Schools Maui,270 'A'apueo Parkway,Pukalani,HI,96768,Maui,Maui,20.8231505,-156.33524
Private School,Independent,Ke Kula 'o Pi'ilani,875 ?Iao Valley Rd,Wailuku,HI,96793,Maui,Maui,20.8836919,-156.53602
Private School,Seventh-day Adventist,Mauna Loa School,172 Kapiolani Street,Hilo,HI,96720,Hawaii,Hawaii,19.719568,-155.08886
Private School,Independent,Parker School,65-1224 Lindsey Road,Kamuela,HI,96743,Hawaii,Hawaii,20.022261,-155.66986
Private School,Roman Catholic,St. Joseph School,1000 Ululani Street,Hilo,HI,96720,Hawaii,Hawaii,19.714212,-155.08438
Private School,Independent,Waimea Country School,65-1237 Kawaihae Rd.,Kamuela,HI,96743,Hawaii,Hawaii,20.021509,-155.67146
Private School,Roman Catholic,St. Catherine School,5021 Kawaihau Road,Kapaa,HI,96746,Kauai,Kauai,22.090692,-159.31753
Private School,Roman Catholic,St. Theresa School,8311 Kaumualii Highway,Kekaha,HI,96752,Kauai,Kauai,21.9645539,-159.71112
Private School,Independent,Maui Preparatory Academy,4910 Honoapiilani Highway,Lahaina,HI,96761,Maui,Maui,20.983314,-156.66446
Private School,Independent,Montessori School of Maui,2933 Baldwin Avenue,Makawao,HI,96768,Maui,Maui,20.869007,-156.32035
Private School,Independent,Roots School,740 Haiku Road,Haiku,HI,96708,Maui,Maui,20.915577,-156.32324
Private School,Roman Catholic,Sacred Hearts School,550 Office Road,Lahaina,Hi,96761,Maui,Maui,20.9995099,-156.65493
Private School,Episcopal,Seabury Hall,480 Olinda Road,Makawao,HI,96768,Maui,Maui,20.842142,-156.30966
Private School,Church of the Nazarene,Windward Nazarene Academy,45-232 Puaae Road,Kaneohe,HI,96744,Oahu,Honolulu,21.403844,-157.78955
Private School,Seventh-day Adventist,Adventist Malama Elementary School,86-072 Farrington Hwy.,Waianae,HI,96792,Oahu,Honolulu,21.438112,-158.1848
Public Housing,State,Kalakaua Homes,1545 Kalakaua Avenue,Honolulu,HI,96826,Oahu,Honolulu,21.295585,-157.83796
Public Housing,State,Kalanihuia,1220 Aala Street,Honolulu,HI,96817,Oahu,Honolulu,21.315993,-157.86271
Public Housing,State,Kalihi Valley Homes,2250 Kalena Drive,Honolulu,HI,96819,Oahu,Honolulu,21.348223,-157.86601
Public Housing,State,Kamalu,94-941 Kauolu Place,Waipahu,HI,96797,Oahu,Honolulu,21.386905,-158.00242
Public Housing,State,Kamehameha Homes,1541 Haka Drive,Honolulu,HI,96817,Oahu,Honolulu,21.329391,-157.87456
Public Housing,State,Kaneohe Apartments,45-507 & 45-513 Pahia Road,Kaneohe,HI,96744,Oahu,Honolulu,21.416778,-157.80206
Public Housing,State,Kau'iokalani,85-658 Farrington Highway,Waianae,HI,96792,Oahu,Honolulu,21.45181,-158.1903
Public Housing,State,Kauhale Nani,310 North Cane Street,Wahiawa,HI,96786,Oahu,Honolulu,21.50104598,-158.0254664
Public Housing,State,Kauhale O'hana,41-1260 Kalanianaole Hwy,Waimanalo,HI,96795,Oahu,Honolulu,21.344164,-157.715
Public Housing,State,Koolau Village,45-1027 Kamau Place,Kaneohe,HI,96744,Oahu,Honolulu,21.412639,-157.80814
Public Housing,State,Kuhio Homes,Ahonui Street,Honolulu,HI,96819,Oahu,Honolulu,21.3392705,-157.87613
Public Housing,State,Kuhio Park Terrace Low-Rise,1441 Ahonui Street,Honolulu,HI,96819,Oahu,Honolulu,21.339317,-157.87708
Public Housing,State,Kupuna Home O'Waialua,67-088 Goodale Avenue,Waialua,HI,96791,Oahu,Honolulu,21.576285,-158.12414
Public Housing,State,La'iola,15 Ihoiho Place,Wahiawa,HI,96786,Oahu,Honolulu,21.496809,-158.02054
Public Housing,State,Maili I,Maliona Street,Maili,HI,96792,Oahu,Honolulu,21.4206005,-158.17326
Public Housing,State,Maili II,Keliikipi Street,Maili,HI,96792,Oahu,Honolulu,21.422145,-158.17671
Public Housing,State,Makamae,21 S. Kuakini Street,Honolulu,HI,96813,Oahu,Honolulu,21.318427,-157.85314
Public Housing,State,Palolo Valley Homes,2108 Ahe Street,Honolulu,HI,96816,Oahu,Honolulu,21.300911,-157.79441
Public Housing,State,Paoakalani,1583 Kalakaua Avenue,Honolulu,HI,96826,Oahu,Honolulu,21.295585,-157.83796
Public Housing,State,Puahala Homes I,Ahiahi Place & Hala Drive,Honolulu,HI,96817,Oahu,Honolulu,21.3279411,-157.86199
Public Housing,State,Puahala Homes II,Ahiahi Place,Honolulu,HI,96817,Oahu,Honolulu,21.3279411,-157.86199
Public Housing,State,Puahala Homes III,Ahiahi Place,Honolulu,HI,96817,Oahu,Honolulu,21.3279411,-157.86199
Public Housing,State,Puahala Homes IV,School St & Lanakila Ave,Honolulu,HI,96817,Oahu,Honolulu,21.32672,-157.86291
Public Housing,State,Pumehana,1212 Kinau Street,Honolulu,HI,96814,Oahu,Honolulu,21.302504,-157.84229
Public Housing,State,Punchbowl Homes,730 Captain Cook Avenue,Honolulu,HI,96813,Oahu,Honolulu,21.307019,-157.84992
Public Housing,State,Puuwai Momi,99-132 Kohomua Street,Aiea,HI,96701,Oahu,Honolulu,21.368291,-157.93443
Public Housing,State,Salt Lake,2907 Ala Ilima Street,Honolulu,HI,96818,Oahu,Honolulu,21.344734,-157.90296
Public Housing,State,Spencer House,1035 Spencer Street,Honolulu,HI,96822,Oahu,Honolulu,21.307472,-157.8444
Public Housing,State,Wahiawa Terrace,300 Palm Street,Wahiawa,HI,96786,Oahu,Honolulu,21.500655,-158.02702
Public Housing,State,Waimaha-Sunflower,85-186 McArthur Street,Waianae,HI,96792,Oahu,Honolulu,21.444868,-158.18566
Public Housing,State,Waimanalo Homes,Humuniki St & Humuna Pl,Waimanalo,HI,96795,Oahu,Honolulu,21.34595,-157.72588
Public Housing,State,Waimanalo Homes II,Humuniki St & Humuna Pl,Waimanalo,HI,96795,Oahu,Honolulu,21.34595,-157.72588
Public Housing,State,Waipahu I,94-111 Pupuole Street,Waipahu,HI,96797,Oahu,Honolulu,21.3771045,-158.01874
Public Housing,State,Waipahu II,94-132 Pupupuhi Street,Waipahu,HI,96797,Oahu,Honolulu,21.380833,-158.01553
Public Housing,State,Hale Laulima,1184 Waimano Home Rd,Pearl City,HI,96782,Oahu,Honolulu,21.398221,-157.96994
Public Housing,State,Hale Po'ai,1001 N. School Street,Honolulu,HI,96817,Oahu,Honolulu,21.327219,-157.86361
Public Housing,State,Halia Hale,1645 Old Palama Street,Honolulu,HI,96817,Oahu,Honolulu,21.325736,-157.8628
Public Housing,State,Hauiki Homes,1574 Meyers Street,Honolulu,HI,96819,Oahu,Honolulu,21.3436489,-157.87834
Public Housing,State,Ho'olulu,94-943 Kauolu Place,Waipahu,HI,96797,Oahu,Honolulu,21.3872453,-158.00292
Public Housing,State,Hookipa Kahaluu,47-330 Ahuimanu Road,Kaneohe,HI,96744,Oahu,Honolulu,21.447959,-157.83342
Public Housing,State,Kaahumanu Homes,Alokele & Kaiwiula Street,Honolulu,HI,96817,Oahu,Honolulu,21.32807,-157.87433
Public Housing,State,Hale Aloha O Puna,16-189 Pili Mua Street,Keaau,HI,96749,Hawaii,Hawaii,19.62235,-155.03922
Public Housing,State,Hale Hauoli,45-540 Koniaka Place,Honokaa,HI,96727,Hawaii,Hawaii,20.0780233,-155.46726
Public Housing,State,Hale Hookipa,81-1038 Nani Kupuna Place,Kealakekua,HI,96750,Hawaii,Hawaii,19.516646,-155.91777
Public Housing,State,Hale Olaloa,144 Kamana Street,Hilo,HI,96720,Hawaii,Hawaii,19.709018,-155.0805
Public Housing,State,Ka Hale Kahaluu,78-6725 Makolea Street,Kailua-Kona,HI,96740,Hawaii,Hawaii,19.5788348,-155.96559
Public Housing,State,Eleele Homes,340 Ahe Street,Eleele,HI,96705,Kauai,Kauai,21.9076571,-159.57969
Public Housing,State,Hale Hoolulu,4264 Ala Muku Place,Kilauea,HI,96754,Kauai,Kauai,22.210614,-159.4063
Public Housing,State,Hale Hoonanea,4401 Waialo Road,Eleele,HI,96705,Kauai,Kauai,21.902708,-159.58641
Public Housing,State,Hale Nana Kai O Kea,4850 Kawaihau Road,Kapaa,HI,96746,Kauai,Kauai,22.086504,-159.31068
Public Housing,State,Home Nani,9791 Laau Road,Waimea,HI,96796,Kauai,Kauai,21.95511,-159.66922
Public Housing,State,Hui O Hanamaulu,4711 Laukona Street,Lihue,HI,96766,Kauai,Kauai,21.9966175,-159.36316
Public Housing,State,David Malo Circle,Mill Street,Lahaina,HI,96761,Maui,Maui,20.865224,-156.66865
Public Housing,State,Kaimalino,74-5060 Kealakaa Street,Kailua-Kona,HI,96740,Hawaii,Hawaii,19.671901,-155.98387
Public Housing,State,Kauhale O'Hanakahi,19 Pamala Street,Hilo,HI,96720,Hawaii,Hawaii,19.6952,-155.07354
Public Housing,State,Ke Kumu Ekolu,68-3385 Ke Kumu Place,Waikoloa,HI,96738,Hawaii,Hawaii,19.951869,-155.79213
Public Housing,State,Ke Kumu Elua,68-3367 Ke Kumu Place,Waikoloa,HI,96738,Hawaii,Hawaii,19.951086,-155.79092
Public Housing,State,Kealakehe,74-991 Manawalea Street,Kailua-Kona,HI,96740,Hawaii,Hawaii,19.675874,-155.98612
Public Housing,State,Lanakila Homes I,60 Holomalia Street,Hilo,HI,96720,Hawaii,Hawaii,19.711453,-155.0845
Public Housing,State,Lanakila Homes II,60 Holomalia Street,Hilo,HI,96720,Hawaii,Hawaii,19.711453,-155.0845
Public Housing,State,Lanakila Homes III,60 Holomalia Street,Hilo,HI,96720,Hawaii,Hawaii,19.711453,-155.0845
Public Housing,State,Lanakila Homes IV,60 Holomalia Street,Hilo,HI,96720,Hawaii,Hawaii,19.711453,-155.0845
Public Housing,State,Lokahi,Lokahi Circle,Hilo,HI,96720,Hawaii,Hawaii,19.6961812,-155.07171
Public Housing,State,Kalaheo,2625 Puu Road,Kalaheo,HI,96741,Kauai,Kauai,21.9111631,-159.53553
Public Housing,State,Kapaa,4726 Malu Road,Kapaa,HI,96746,Kauai,Kauai,22.079032,-159.32354
Public Housing,State,Kawailehua-Federal,5230 Paanau Road,Koloa,HI,96756,Kauai,Kauai,21.896976,-159.46776
Public Housing,State,Kawailehua-State,5220 Paanau Road,Koloa,HI,96756,Kauai,Kauai,21.896316,-159.46846
Public Housing,State,Kekaha Ha'aheo,8238 Iwipolena Road,Kekaha,HI,96752,Kauai,Kauai,21.969033,-159.71551
Public Housing,State,Kahale Mua-Federal,119 Maunaloa Road,Maunaloa,HI,96770,Molokai,Maui,21.13283,-157.21427
Public Housing,State,Kahale Mua-State,100 Maunaloa Road,Maunaloa,HI,96770,Molokai,Maui,21.13283,-157.21427
Public Housing,State,Kahekili Terrace,2015 Holowai Place,Wailuku,HI,96793,Maui,Maui,20.890157,-156.50422
Public Housing,State,Makua Alii,1541 Kalakaua Avenue,Honolulu,HI,96826,Oahu,Honolulu,21.295585,-157.83796
Public Housing,State,Mayor Wright Homes,521 N. Kukui Street,Honolulu,HI,96817,Oahu,Honolulu,21.319921,-157.86421
Public Housing,State,Nanakuli Homes,Lualei Pl & Farrington Hwy,Nanakuli,HI,96792,Oahu,Honolulu,21.39563,-158.16136
Public Housing,State,Nani Olu,81-1011 Nani Kupuna Place,Kealakekua,HI,96750,Hawaii,Hawaii,19.51689,-155.91951
Public Housing,State,Noelani I,65-1189 Opelo Road,Kamuela,HI,96743,Hawaii,Hawaii,20.020682,-155.67725
Public Housing,State,Noelani II,65-1191 Opelo Road,Kamuela,HI,96743,Hawaii,Hawaii,20.020682,-155.67725
Public Housing,State,Pahala,96-1169 Kou Street,Pahala,HI,96777,Hawaii,Hawaii,19.72877,-155.08831
Public Housing,State,Pomaikai Homes,929 Ululani Street,Hilo,HI,96720,Hawaii,Hawaii,19.715609,-155.08423
Public Housing,State,Punahele Homes,Lokahi Place,Hilo,HI,96720,Hawaii,Hawaii,19.6966326,-155.07311
Public Housing,State,Makani Kai Hale,35 Koapaka Lane,Wailuku,HI,96793,Maui,Maui,20.904082,-156.49731
Public Housing,State,Makani Kai Hale II,35 Koapaka Lane,Wailuku,HI,96793,Maui,Maui,20.904082,-156.49731
Public Housing,State,Piilani Homes,1028 Wainee Street,Lahaina,HI,96761,Maui,Maui,20.880475,-156.68045
Public Housing,County,Ainakea Elderly Apartments,53-3996 Ainakea Dr,Kapaau,HI,96755,Hawaii,Hawaii,20.23074729,-155.795994
Public Housing,County,Hale Kikaha,74-5595 Pawai Place,Kailua-Kona,HI,96740,Hawaii,Hawaii,19.64459247,-155.9991732
Public Housing,County,Kihei Pua Emergency Shelter,115 Kapiolani St,Hilo,HI,96720,Hawaii,Hawaii,19.72176649,-155.0889533
Public Library,,Lahaina Public Library,680 Wharf St,Lahaina,HI,96761,Maui,Maui,20.87278031,-156.6783005
Public Library,,Aiea Public Library,99-374 Pohai Pl,Aiea,HI,96701,Oahu,Honolulu,21.38103205,-157.9274629
Public Library,,Hanapepe Public Library,4490 Kona Rd P.O. Box B,Hanapepe,HI,96716,Kauai,Kauai,21.90894883,-159.5875903
Public Library,,Kapaa Public Library,4-1464 Kuhio Hwy,Kapaa,HI,96746,Kauai,Kauai,22.07749227,-159.315834
Public Library,,Lihue Public Library,4344 Hardy St,Lihue,HI,96766,Kauai,Kauai,21.97660296,-159.3646638
Public Library,,Princeville Public Library,4343 Emmalani Dr,Princeville,HI,96722,Kauai,Kauai,22.21407627,-159.4720373
Public Library,,Koloa Public and School Library,3451 Poipu Rd P.O. Box 9,Koloa,HI,96756,Kauai,Kauai,21.898561,-159.4667652
Public Library,,Hana Public and School Library,4111 Hana Hwy P.O. Box 490,Hana,HI,96713,Maui,Maui,20.77840921,-155.99797
Public Library,,Kahului Public Library,90 School St,Kahului,HI,96732,Maui,Maui,20.88750253,-156.47034
Public Library,,Kihei Public Library,35 Waimahaihai St,Kihei,HI,96753,Maui,Maui,20.73455124,-156.4543802
Public Library,,Makawao Public Library,1159 Makawao Ave,Makawao,HI,96768,Maui,Maui,20.85358722,-156.3110361
Public Library,,Lanai Public and School Library,555 Fraser Ave P.O. Box 630550,Lanai City,HI,96763,Lanai,Maui,20.82621969,-156.9221101
Public Library,,Molokai Public Library,15 Ala Malama Ave P.O. Box 395,Kaunakakai,HI,96748,Molokai,Maui,21.09007816,-157.0225121
Public Library,,Aina Haina Public Library,5246 Kalanianaole Hwy,Honolulu,HI,96821,Oahu,Honolulu,21.27854764,-157.7532034
Public Library,,Ewa Beach Public and School Library,91-950 North Rd,Ewa Beach,HI,96706,Oahu,Honolulu,21.31469681,-158.0085355
Public Library,,Hawaii Kai Public Library,249 Lunalilo Home Rd,Honolulu,HI,96825,Oahu,Honolulu,21.27712612,-157.7036425
Public Library,,Hawaii State Library,478 S. King St,Honolulu,HI,96813,Oahu,Honolulu,21.30570728,-157.8577865
Public Library,,Kaimuki Public Library,1041 Koko Head Ave,Honolulu,HI,96816,Oahu,Honolulu,21.27990579,-157.7984587
Public Library,,Kalihi-Palama Public Library,1325 Kalihi St,Honolulu,HI,96819,Oahu,Honolulu,21.33318154,-157.8723002
Public Library,,Library for the Blindnd Print Disabled,402 Kapahulu Ave,Honolulu,HI,96815,Oahu,Honolulu,21.27486142,-157.8168983
Public Library,,Liliha Public Library,1515 Liliha St,Honolulu,HI,96817,Oahu,Honolulu,21.3207767,-157.8604298
Public Library,,Honokaa Public Library,45-3380 Mamane St Bldg 3,Honokaa,HI,96727,Hawaii,Hawaii,20.07691773,-155.462331
Public Library,,Hilo Public Library,300 Waianuenue Ave,Hilo,HI,96720,Hawaii,Hawaii,19.7246894,-155.0909919
Public Library,,Keaau Public and School Library,16-571 Keaau-Pahoa Rd,Keaau,HI,96749,Hawaii,Hawaii,19.62211714,-155.0377033
Public Library,,Pahoa Public and School Library,15-3070 Pahoa-Kalapana Rd,Pahoa,HI,96778,Hawaii,Hawaii,19.49038497,-154.9417322
Public Library,,Kealakekua Public Library,81-6619 Mamalahoa Hwy P.O. Box 768,Kealakekua,HI,96750,Hawaii,Hawaii,19.51539356,-155.9208287
Public Library,,Mountain View Public and School Library,18-1235 Volcano Hwy P.O. Box 380,Mountain View,HI,96771,Hawaii,Hawaii,19.5544098,-155.1028055
Public Library,,Naalehu Public Library,95-5669 Mamalahoa Hwy P.O. Box 653,Naalehu,HI,96772,Hawaii,Hawaii,19.05969072,-155.587367
Public Library,,North Kohala Public Library,54-3645 Akoni Pule Hwy P.O. Box 248,Kapaau,HI,96755,Hawaii,Hawaii,20.23776431,-155.8148686
Public Library,,Pahala Public and School Library,96-3150 Pikake St P.O. Box 400,Pahala,HI,96777,Hawaii,Hawaii,19.20315888,-155.4784782
Public Library,,Kailua-Kona Public Library,75-138 Hualalai Rd,Kailua-Kona,HI,96740,Hawaii,Hawaii,19.63767977,-155.9913658
Public Library,,Laupahoehoe Public and School Library,35-2065 Old Mamalahoa Hwy P.O. Box 249,Laupahoehoe,HI,96764,Hawaii,Hawaii,19.97972717,-155.2275156
Public Library,,Thelma Parker Memorial Public and School Library,67-1209 Mamalahoa Hwy P.O. Box 698,Kamuela,HI,96743,Hawaii,Hawaii,20.01919481,-155.6691658
Public Library,,Manoa Public Library,2716 Woodlawn Dr,Honolulu,HI,96822,Oahu,Honolulu,21.30713832,-157.8106576
Public Library,,McCully-Moiliili Public Library,2211 S King St,Honolulu,HI,96826,Oahu,Honolulu,21.2937878,-157.8276863
Public Library,,Salt Lake-Moanalua Public Library,3225 Salt Lake Blvd,Honolulu,HI,96818,Oahu,Honolulu,21.34332597,-157.9128097
Public Library,,Kahuku Public and School Library,56-490 Kamehameha Hwy,Kahuku,HI,96731,Oahu,Honolulu,21.67544622,-157.947833
Public Library,,Kailua Public Library,239 Kuulei Rd,Kailua,HI,96734,Oahu,Honolulu,21.39611153,-157.7403392
Public Library,,Kaneohe Public Library,45-829 Kamehameha Hwy,Kaneohe,HI,96744,Oahu,Honolulu,21.41268085,-157.7992741
Public Library,,Kapolei Public Library,1020 Manawai St,Kapolei,HI,96707,Oahu,Honolulu,21.33401363,-158.0794247
Public Library,,Mililani Public Library,95-450 Makaimoimo St,Mililani,HI,96789,Oahu,Honolulu,21.45216517,-158.0085136
Public Library,,Nanakuli Public Library,89-070 Farrington Highway,Waianae,HI,96792,Oahu,Honolulu,21.3826389,-158.1462885
Public Library,,Pearl City Public Library,1138 Waimano Home Rd,Pearl City,HI,96782,Oahu,Honolulu,21.3971742,-157.9693263
Public Library,,Wahiawa Public Library,820 California Ave,Wahiawa,HI,96786,Oahu,Honolulu,21.49758792,-158.0265367
Public Library,,Waikiki-Kapahulu Public Library,400 Kapahulu Ave,Honolulu,HI,96815,Oahu,Honolulu,21.27426348,-157.8166017
Public Library,,Waianae Public Library,85-625 Farrington Hwy,Waianae,HI,96792,Oahu,Honolulu,21.45037625,-158.1921721
Public Library,,Waialua Public Library,67-068 Kealohanui St,Waialua,HI,96791,Oahu,Honolulu,21.57382462,-158.1226068
Public Library,,Waimanalo Public and School Library,41-1320 Kalanianaole Hwy,Waimanalo,HI,96795,Oahu,Honolulu,21.34616884,-157.7148953
Public Library,,Waipahu Public Library,94-275 Mokuola St,Waipahu,HI,96797,Oahu,Honolulu,21.38573442,-158.0028648
Public Library,,Waimea Public Library,9750 Kaumualii Hwy P.O. Box 397,Waimea,HI,96796,Kauai,Kauai,21.95569879,-159.6697938
Public Library,,Wailuku Public Library,251 S. High St,Wailuku,HI,96793,Maui,Maui,20.88513854,-156.5048456
Public Safety,Police Station,KAUAI COUNTY POLICE DEPARTMENT,3990 KAANA ST #200,Lihue,HI,96766,Kauai,Kauai,21.97701812,-159.3549834
Public Safety,Police Station,HANALEI POLICE SUBSTATION,5-4290 KUHIO HWY,Princeville,HI,96722,Kauai,Kauai,22.21233422,-159.4789606
Public Safety,Police Station,WAIMEA POLICE SUBSTATION,9565 Kaumualii Hwy,Waimea,HI,96796,Kauai,Kauai,21.95669618,-159.6671439
Public Safety,Police Station,KAPAA POLICE SUBSTATION,4670 KAHAU ST,Kapaa,HI,96746,Kauai,Kauai,22.07769237,-159.3195757
Public Safety,Police Station,KOLOA POLICE SUBSTATION,3461B WELIWELI RD,Koloa,HI,96756,Kauai,Kauai,21.90342388,-159.4642791
Public Safety,Police Station,Hilo Station,349 Kapiolani Street,Hilo,HI,96720,Hawaii,Hawaii,19.71488198,-155.0852222
Public Safety,Police Station,Laupahoehoe Station,Puualaea Homestaed Road,Laupahoehoe,HI,96764,Hawaii,Hawaii,19.98298625,-155.2327105
Public Safety,Police Station,Honokaa Station,45-3362 Mamane Street,Honokaa,HI,96727,Hawaii,Hawaii,20.07714763,-155.4625116
Public Safety,Police Station,Waimea Station,67-5185 Kamamalu Street,Waimea,HI,96743,Hawaii,Hawaii,20.02384712,-155.6616559
Public Safety,Police Station,Kalahuipuaa Substation,68-5660 Queen Kaahumanu Highway,Kalahuipuaa,HI,96743,Hawaii,Hawaii,19.94670743,-155.8338708
Public Safety,Police Station,Kapaau Station,54-3900 Akoni Pule Highway,Kapaau,HI,96755,Hawaii,Hawaii,20.22990897,-155.7982703
Public Safety,Police Station,Kona Station,74-611 Hale Makai Place,Kailua-Kona,HI,96740,Hawaii,Hawaii,19.66371666,-156.0069609
Public Safety,Police Station,Captain Cook Substation,82-6130 Mamalahoa Highway,Captain Cook,HI,96704,Hawaii,Hawaii,19.48893231,-155.9094408
Public Safety,Police Station,Ocean View Substation,92-1329 Prince Kuhio Boulevard,Ocean View,HI,96704,Hawaii,Hawaii,19.0843543,-155.7761324
Public Safety,Police Station,Naalehu Station,95-5353 Mamalahoa Highway,Naalehu,HI,96772,Hawaii,Hawaii,19.0679839,-155.5670025
Public Safety,Police Station,Pahoa Station,15-2615 Keaau Pahoa Road,Pahoa,HI,96778,Hawaii,Hawaii,19.50874107,-154.9579515
Public Safety,Police Station,Keaau Substation,16-0579 Old Volcano Road,Keaau,HI,96749,Hawaii,Hawaii,19.62095671,-155.040155
Public Safety,Police Station,Clem Akina Park Mini Police Station,145 Wainaku Street,Hilo,HI,96720,Hawaii,Hawaii,19.72886325,-155.0920525
Public Safety,Police Station,Mooheau Mini Police Station,329 Kamehameha Avenue,Hilo,HI,96720,Hawaii,Hawaii,19.72402838,-155.0845876
Public Safety,Police Station,Richardson Mini Police Station,2355 Kalanianaiole Street,Hilo,HI,96720,Hawaii,Hawaii,19.73537911,-155.0133523
Public Safety,Police Station,Pepeekeo Mini Police Station,28-2923 Kumula Street,Pepeekeo,HI,96783,Hawaii,Hawaii,19.83518525,-155.1048614
Public Safety,Police Station,Honokaa Station Mini Police Station,45-3400 Mamane Street,Honokaa,HI,96727,Hawaii,Hawaii,20.0789081,-155.467806
Public Safety,Police Station,Kailua Village Mini Police Station,75-5704 Likana Lane,Kailua-Kona,HI,96740,Hawaii,Hawaii,19.63979031,-155.9944276
Public Safety,Police Station,Keauhou Mini Police Station,78-6831 Kamehameha III Road,Kailua-Kona,HI,96740,Hawaii,Hawaii,19.57109794,-155.9619874
Public Safety,Police Station,Waiakea Uka Mini Police Station,1200 Ainaloa Drive,Hilo,HI,96720,Hawaii,Hawaii,19.66578877,-155.1065152
Public Safety,Police Station,Holomua Mini Police Station,135 Holomua Street,Hilo,HI,96720,Hawaii,Hawaii,19.7019791,-155.0658062
Public Safety,Police Station,Waikoloa Mini Police Station,68-1771 Pua Melia Street,Waikoloa Village,HI,96738,Hawaii,Hawaii,19.92495649,-155.7938441
Public Safety,Police Station,Maui Police Department,55 Mahalani St,Wailuku,HI,96793,Maui,Maui,20.88816304,-156.4881156
Public Safety,Police Station,MOLOKAI POLICE,110 Ainoa St,Kaunakakai,HI,96748,Molokai,Maui,21.09064267,-157.0181146
Public Safety,Police Station,LANAI POLICE,855 Fraser Ave,Lanai City,HI,96763,Lanai,Maui,20.82344429,-156.9210018
Public Safety,Police Station,LAHAINA POLICE,1850 Honoapiilani Hwy,Lahaina,HI,96761,Maui,Maui,20.90465821,-156.6844577
Public Safety,Police Station,KIHEI POLICE PIILANI HWY,2201 Piilani Hwy,Kihei,HI,96753,Maui,Maui,20.72705323,-156.4407286
Public Safety,Police Station,HANA POLICE,35 Hana Hwy,Hana,HI,96713,Maui,Maui,20.76302653,-155.993536
Public Safety,Police Station,Kahuku Substation,56-470 Kamehameha Hwy,Kahuku,HI,96731,Oahu,Honolulu,21.67471551,-157.9461727
Public Safety,Police Station,Wahiawa District Station,330 N Cane St,Wahiawa,HI,96786,Oahu,Honolulu,21.50248971,-158.0252699
Public Safety,Police Station,Waianae Substation,85-939 Farrington Hwy,Waianae,HI,96792,Oahu,Honolulu,21.4432876,-158.1874973
Public Safety,Police Station,Kailua Substation,219 Kuulei Rd,Kailua,HI,96734,Oahu,Honolulu,21.39625721,-157.739872
Public Safety,Police Station,Kaneohe District Station,45-270 Waikalua Rd,Kaneohe,HI,96744,Oahu,Honolulu,21.41340394,-157.7987522
Public Safety,Police Station,Pearl City District Station,1100 Waimano Home Rd,Pearl City,HI,96782,Oahu,Honolulu,21.3962096,-157.9697177
Public Safety,Police Station,Kalihi District Station,1865 Kamehameha IV Road,Honolulu,HI,96819,Oahu,Honolulu,21.34407759,-157.8706503
Public Safety,Police Station,Chinatown Substation,79 North Hotel Street,Honolulu,HI,96813,Oahu,Honolulu,21.31202996,-157.8627939
Public Safety,Police Station,Waikiki Substation,2425 Kalakaua Avenue,Honolulu,HI,96815,Oahu,Honolulu,21.27597648,-157.8257804
Public Safety,Police Station,Kapolei District Station,1100 Kamokila Boulevard,Kapolei,HI,96707,Oahu,Honolulu,21.33581325,-158.0813684
Public Safety,Police Station,Alapai Police Headquarters,801 South Beretania St.,Honolulu,HI,96813,Oahu,Honolulu,21.30396207,-157.8515073
Public Safety,Fire Station,Kawailani Fire Station,411 W Kawailani St,Hilo,HI,96720,Hawaii,Hawaii,19.68367733,-155.0794865
Public Safety,Fire Station,Central Fire Station,466 Kinoole St,Hilo,HI,96720,Hawaii,Hawaii,19.72031217,-155.0861915
Public Safety,Fire Station,Waimea Fire Station,67 Kamamalu St,Waimea,HI,96743,Hawaii,Hawaii,20.02313125,-155.6612085
Public Safety,Fire Station,North Kohala Fire Station,54-3900 Akoni Pule Hwy,Kapaau,HI,96755,Hawaii,Hawaii,20.22999262,-155.7983334
Public Safety,Fire Station,Keauhou Fire Station,78-7159 Puuloa Rd,Kailua-Kona,HI,96740,Hawaii,Hawaii,19.56053353,-155.9404876
Public Safety,Fire Station,Pahoa Fire Station,152605 HI-130,Pahoa,HI,96778,Hawaii,Hawaii,19.50933138,-154.9583575
Public Safety,Fire Station,Captain Cook Fire Station,82-6120 Mamalahoa Hwy,Captain Cook,HI,96704,Hawaii,Hawaii,19.48849206,-155.9090099
Public Safety,Fire Station,Waikoloa Fire Station,68-1771 Pua Melia St,Waikoloa Village,HI,96738,Hawaii,Hawaii,19.92491138,-155.7938788
Public Safety,Fire Station,Honokaa Fire Station,45-3362 Mamane St,Honokaa,HI,96727,Hawaii,Hawaii,20.07721235,-155.4625462
Public Safety,Fire Station,Keaau Fire Station,16-579 Old Volcano Rd,Keaau,HI,96749,Hawaii,Hawaii,19.62093131,-155.0401036
Public Safety,Fire Station,Waiakea Fire Station,95 Keaa St,Hilo,HI,96720,Hawaii,Hawaii,19.72411426,-155.0584834
Public Safety,Fire Station,Kaumana Fire Station,310 Kaumana Dr,Hilo,HI,96720,Hawaii,Hawaii,19.71079738,-155.1089751
Public Safety,Fire Station,South Kohala Fire Station,68-4550 Queen Kaahumanu Hwy,Waimea,HI,96743,Hawaii,Hawaii,19.94675118,-155.8338739
Public Safety,Fire Station,Hawaiian Paradise Park Fire Station,15-1575 Paradise Dr,Keaau,HI,96749,Hawaii,Hawaii,19.57428132,-154.97412
Public Safety,Fire Station,Kailua Fire Station,74-5537 Palani Rd,Kailua-Kona,HI,96740,Hawaii,Hawaii,19.6473463,-155.9924114
Public Safety,Fire Station,Hawaiian Ocean View Fire Station,92-6093 Orchid Mauka Circle,Ocean View,HI,96737,Hawaii,Hawaii,19.11748319,-155.7783497
Public Safety,Fire Station,Pahala Fire Station,96-1149 Kamani St,Pahala,HI,96777,Hawaii,Hawaii,19.20092749,-155.4731101
Public Safety,Fire Station,Volcano Fire Station,99252 Crater Rim Drive,Volcano,HI,96785,Hawaii,Hawaii,19.43397749,-155.2759785
Public Safety,Fire Station,Laupahoehoe Fire Station,36-2285 Old Mamalahoa Hwy,Laupahoehoe,HI,96764,Hawaii,Hawaii,19.98300746,-155.2328435
Public Safety,Fire Station,Fire Department Maintenance Shop,95 Keaa St,Hilo,HI,96720,Hawaii,Hawaii,19.72385077,-155.0582469
Public Safety,Fire Station,Fire Warehouse and Dispatch Center,466 Kinoole St,Hilo,HI,96720,Hawaii,Hawaii,19.71994587,-155.0864798
Public Safety,Fire Station,Makalei Fire Station,72-4077 Mamalahoa Hwy,Kailua-Kona,HI,96740,Hawaii,Hawaii,19.73343633,-155.9773044
Public Safety,Fire Station,Naalehu Medic 11,95-5656 Hawaii Belt Rd,Naalehu,HI,96772,Hawaii,Hawaii,19.06131386,-155.5868486
Public Safety,Fire Station,HANALEI FIRE STATION,5-4390 Kuhio Hwy,Hanalei,HI,96714,Kauai,Kauai,22.21226844,-159.4790025
Public Safety,Fire Station,KOLOA FIRE STATION,2810 Poipu Rd,Koloa,HI,96756,Kauai,Kauai,21.88374288,-159.4674399
Public Safety,Fire Station,WAIMEA FIRE STATION,9835 Kaumualii Hwy,Waimea,HI,96796,Kauai,Kauai,21.95548661,-159.6682036
Public Safety,Fire Station,LIHUE FIRE STATION,4223 Rice St,Lihue,HI,96766,Kauai,Kauai,21.97137547,-159.3638646
Public Safety,Fire Station,KAPAA FIRE STATION,4-757 Kuhio Hwy,Kapaa,HI,96746,Kauai,Kauai,22.06036951,-159.3222518
Public Safety,Fire Station,HANAPEPE FIRE STATION,1-3787 Kaumualii Hwy,Hanapepe,HI,96716,Kauai,Kauai,21.90949193,-159.5883492
Public Safety,Fire Station,KALAHEO FIRE STATION,2-2480 Kaumualii Hwy,Kalaheo,HI,96741,Kauai,Kauai,21.92525673,-159.5262553
Public Safety,Fire Station,KAIAKEA FIRE STATION,4-1881 Kuiho Hwy,Kapaa,HI,96746,Kauai,Kauai,22.08720235,-159.3092206
Public Safety,Fire Station,Laupahoehoe - Volunteer,,,HI,,Hawaii,Hawaii,19.98288942,-155.2328908
Public Safety,Fire Station,Kalaoa Mauka - Volunteer,,,HI,,Hawaii,Hawaii,19.70756303,-155.9731129
Public Safety,Fire Station,Kohala Ranch - Volunteer,,,HI,,Hawaii,Hawaii,20.08268215,-155.832626
Public Safety,Fire Station,Kona Paradise Subdivision - Volunteer,,,HI,,Hawaii,Hawaii,19.31496989,-155.8786157
Public Safety,Fire Station,Milolii - Volunteer,,,HI,,Hawaii,Hawaii,19.18983729,-155.9052955
Public Safety,Fire Station,Hawaiian Beaches - Volunteer,,,HI,,Hawaii,Hawaii,19.54740172,-154.9016021
Public Safety,Fire Station,Waa Waa - Volunteer,,,HI,,Hawaii,Hawaii,19.54294862,-154.8578435
Public Safety,Fire Station,Waikoloa Village - Volunteer,,,HI,,Hawaii,Hawaii,19.92631517,-155.7874828
Public Safety,Fire Station,Kona Village - Volunteer,,,HI,,Hawaii,Hawaii,19.83047198,-155.9824138
Public Safety,Fire Station,Discovery Harbour - Volunteer,,,HI,,Hawaii,Hawaii,19.04040793,-155.635322
Public Safety,Fire Station,Volcano Village - Volunteer,,,HI,,Hawaii,Hawaii,19.4344652,-155.2305676
Public Safety,Fire Station,Ocean View - Volunteer,,,HI,,Hawaii,Hawaii,19.11747561,-155.7783003
Public Safety,Fire Station,Pepeekeo - Volunteer,,,HI,,Hawaii,Hawaii,19.83518871,-155.1049433
Public Safety,Fire Station,Fern Forest - Volunteer,,,HI,,Hawaii,Hawaii,19.45919794,-155.129874
Public Safety,Fire Station,Hawaiian Acres - Volunteer,,,HI,,Hawaii,Hawaii,19.55652974,-155.0498386
Public Safety,Fire Station,Fern Acres - Volunteer,,,HI,,Hawaii,Hawaii,19.5389585,-155.0921294
Public Safety,Fire Station,Four Seasons - Volunteer,,,HI,,Hawaii,Hawaii,19.82680655,-155.9909765
Public Safety,Fire Station,Hawaiian Paradise Park - Volunteer,,,HI,,Hawaii,Hawaii,19.57410812,-154.9742633
Public Safety,Fire Station,Kulani - Volunteer,,,HI,,Hawaii,Hawaii,19.5491161,-155.30091
Public Safety,Fire Station,Waikii - Volunteer,,,HI,,Hawaii,Hawaii,19.85574419,-155.6541663
Public Safety,Fire Station,Naalehu - Volunteer,,,HI,,Hawaii,Hawaii,19.06250712,-155.5868727
Public Safety,Fire Station,Pahala - Volunteer,,,HI,,Hawaii,Hawaii,19.20088958,-155.4733339
Public Safety,Fire Station,Kaupulehu - Volunteer,,,HI,,Hawaii,Hawaii,19.64934052,-155.9881619
Public Safety,Fire Station,Kahuku,56-460 Kamehameha Hwy,Kahuku,HI,96731,Oahu,Honolulu,21.67471551,-157.9461727
Public Safety,Fire Station,Sunset,59-719 Kamehameha Hwy,Haleiwa,HI,96712,Oahu,Honolulu,21.64853984,-158.0626703
Public Safety,Fire Station,Waialua,66-420 Haleiwa Rd,Haleiwa,HI,96712,Oahu,Honolulu,21.58652453,-158.111864
Public Safety,Fire Station,Hauula,54-064 Kamehameha Hwy,Hauula,HI,96717,Oahu,Honolulu,21.60805173,-157.9090749
Public Safety,Fire Station,Kaaawa,51-518 Kamehameha Hwy,Kaaawa,HI,96730,Oahu,Honolulu,21.55666298,-157.8547442
Public Safety,Fire Station,Wahiawa,640 California Ave,Wahiawa,HI,96786,Oahu,Honolulu,21.49720185,-158.0279078
Public Safety,Fire Station,Waianae,85-645 Farrington Hwy,Waianae,HI,96792,Oahu,Honolulu,21.4499859,-158.1917316
Public Safety,Fire Station,Kahaluu,47-304 Waihee Rd,Kaneohe,HI,96744,Oahu,Honolulu,21.45736758,-157.8467605
Public Safety,Fire Station,Mililani,95-269 Kipapa Dr,Mililani,HI,96789,Oahu,Honolulu,21.45692967,-158.0155858
Public Safety,Fire Station,Aikahi,45 Kaneohe Bay Dr,Kailua,HI,96734,Oahu,Honolulu,21.4238455,-157.7495421
Public Safety,Fire Station,Kailua,211 Kuulei Rd,Kailua,HI,96734,Oahu,Honolulu,21.39667707,-157.7393514
Public Safety,Fire Station,Olomana,42 Kalanianaole Hwy,Kailua,HI,96734,Oahu,Honolulu,21.37749537,-157.750491
Public Safety,Fire Station,Kaneohe (Hq.),45-910 Kamehameha Hwy,Kaneohe,HI,96744,Oahu,Honolulu,21.41360866,-157.80049
Public Safety,Fire Station,Nanakuli,89-334 Nanakuli Ave,Waianae,HI,96792,Oahu,Honolulu,21.38169615,-158.1397655
Public Safety,Fire Station,Waiau,98-1109 Komo Mai Dr,Pearl City,HI,96782,Oahu,Honolulu,21.40168537,-157.9511512
Public Safety,Fire Station,Aiea,98-1225 Ulune St,Aiea,HI,96701,Oahu,Honolulu,21.38436334,-157.9315262
Public Safety,Fire Station,Waipahu,94-121 Leonui St,Waipahu,HI,96797,Oahu,Honolulu,21.37667325,-158.0223365
Public Safety,Fire Station,Pearl City,880 1st St,Pearl City,HI,96782,Oahu,Honolulu,21.39023404,-157.9713958
Public Safety,Fire Station,Waimanalo,41 Kalanianaole Hwy,Waimanalo,HI,96795,Oahu,Honolulu,21.34741942,-157.7151632
Public Safety,Fire Station,Manoa,2850 E Manoa Rd,Honolulu,HI,96822,Oahu,Honolulu,21.309762,-157.8107905
Public Safety,Fire Station,Kalihi Uka,1861 Kamehameha IV Rd,Honolulu,HI,96819,Oahu,Honolulu,21.34407759,-157.8706503
Public Safety,Fire Station,Kalihi,1742 N King St,Honolulu,HI,96819,Oahu,Honolulu,21.33160807,-157.8757473
Public Safety,Fire Station,Nuuanu,115 Wyllie St,Honolulu,HI,96817,Oahu,Honolulu,21.32816071,-157.8467277
Public Safety,Fire Station,Kuakini,601 N Kuakini St,Honolulu,HI,96817,Oahu,Honolulu,21.32428277,-157.8583335
Public Safety,Fire Station,Kalihi Kai,1334 N Nimitz Hwy,Honolulu,HI,96817,Oahu,Honolulu,21.32163121,-157.8785882
Public Safety,Fire Station,Central (Hq.),104 S Beretania St,Honolulu,HI,96813,Oahu,Honolulu,21.31127444,-157.8589294
Public Safety,Fire Station,Waterfront,71 N Nimitz Hwy,Honolulu,HI,96813,Oahu,Honolulu,21.31121212,-157.8651739
Public Safety,Fire Station,Makakilo,92-885 Makakilo Dr,Kapolei,HI,96707,Oahu,Honolulu,21.3545414,-158.0864911
Public Safety,Fire Station,Kapolei (Hq.),107 Uu Pl,Kapolei,HI,96707,Oahu,Honolulu,21.32435143,-158.0905791
Public Safety,Fire Station,Moanalua,2835 Ala Ilima St,Honolulu,HI,96818,Oahu,Honolulu,21.34508626,-157.9007682
Public Safety,Fire Station,Mokulele,800-860 Valkenburgh St,Honolulu,HI,96818,Oahu,Honolulu,21.33994463,-157.9321507
Public Safety,Fire Station,Airport,112 Nakolo Pl,Honolulu,HI,96819,Oahu,Honolulu,21.31951686,-157.9123922
Public Safety,Fire Station,Ewa Beach,91-995 Kaileolea Dr,Ewa Beach,HI,96706,Oahu,Honolulu,21.32169809,-158.0195656
Public Safety,Fire Station,Hawaii Kai,515 Lunalilo Home Rd,Honolulu,HI,96825,Oahu,Honolulu,21.28627212,-157.6971924
Public Safety,Fire Station,Wailupe,5046 Kalanianaole Hwy,Honolulu,HI,96821,Oahu,Honolulu,21.27706016,-157.7597864
Public Safety,Fire Station,Palolo,3401 Kiwila St,Honolulu,HI,96816,Oahu,Honolulu,21.29979336,-157.7949023
Public Safety,Fire Station,McCully,2425 Date St,Honolulu,HI,96826,Oahu,Honolulu,21.28822765,-157.8248736
Public Safety,Fire Station,Kaimuki,971 Koko Head Ave,Honolulu,HI,96816,Oahu,Honolulu,21.27832404,-157.7995692
Public Safety,Fire Station,Waikiki (Hq.),381 Kapahulu Ave,Honolulu,HI,96815,Oahu,Honolulu,21.27288145,-157.8163219
Public Safety,Fire Station,Makiki,1202 Wilder Ave,Honolulu,HI,96822,Oahu,Honolulu,21.30679765,-157.8390092
Public Safety,Fire Station,Kakaako,555 Queen St,Honolulu,HI,96813,Oahu,Honolulu,21.30282597,-157.8590708
Public Safety,Fire Station,Pawaa,1610 Makaloa St,Honolulu,HI,96814,Oahu,Honolulu,21.29271254,-157.8392274
Public Safety,Fire Station,Mililani Mauka (Hq.),95-1990 Meheula Pkwy,Mililani,HI,96789,Oahu,Honolulu,21.47144275,-157.9995528
Public Safety,Fire Station,Waikele,94-840 Lumiaina Pl,Waipahu,HI,96797,Oahu,Honolulu,21.40042822,-158.0049196
Public Safety,Fire Station,E1 - Wailuku Fire Station,21 Kinipopo St,Wailuku,HI,96793,Maui,Maui,20.88769387,-156.499359
Public Safety,Fire Station,E2 - Paia Fire Station,179 Hana Hwy,Paia,HI,96779,Maui,Maui,20.91749061,-156.3800658
Public Safety,Fire Station,E3 - Lahaina Fire Station,1860 Honoapiilani Hwy,Lahaina,HI,96761,Maui,Maui,20.90533639,-156.6847467
Public Safety,Fire Station,E4 - Kaunakakai Fire Station,230 Kakalahale St,Kaunakakai,HI,96748,Molokai,Maui,21.08902853,-157.0098359
Public Safety,Fire Station,E5 - Makawao Fire Station,134 Makawao Ave,Makawao,HI,96768,Maui,Maui,20.83577238,-156.3306309
Public Safety,Fire Station,E6 - Kihei Fire Station,11 Waimahaihai St,Kihei,HI,96753,Maui,Maui,20.73475814,-156.4533806
Public Safety,Fire Station,E7 - Hana Fire Station,4655 Hana Hwy,Hana,HI,96713,Maui,Maui,20.76192405,-155.9931971
Public Safety,Fire Station,E8 - Lanai Fire Station,1345 Fraser Ave,Lanai City,HI,96763,Lanai,Maui,20.8186061,-156.9186904
Public Safety,Fire Station,E9 - Hoolehua Fire Station,2190 Farrington Ave,Hoolehua,HI,96729,Molokai,Maui,21.16338735,-157.0502805
Public Safety,Fire Station,E10 - Kahului Fire Station,200 Dairy Rd,Kahului,HI,96732,Maui,Maui,20.87956387,-156.4567459
Public Safety,Fire Station,E11 - Napili Fire Station,4950 Hanawai St,Lahaina,HI,96761,Maui,Maui,20.98483953,-156.668093
Public Safety,Fire Station,E12 - Pukoo Fire Station,8735 E Kamehameha V Hwy,Kaunakakai,HI,96748,Molokai,Maui,21.07279662,-156.7963326
Public Safety,Fire Station,E13 - Kula Fire Station,50 Calasa Rd,Kula,HI,96790,Maui,Maui,20.75792366,-156.3292235
Public Safety,Fire Station,E14 - Wailea Fire Station,300 Kilohana Dr,Kihei,HI,96753,Maui,Maui,20.70608882,-156.4368932
Public Safety,Jail,Hawaii Community Correctional Center,60 Punahele Street,Hilo,HI,96720,Hawaii,Hawaii,19.71878,-155.09899
Public Safety,Jail,Kauai Community Correctional Center,3-5351 Kuhio Highway,Lihue,HI,96766,Kauai,Kauai,22.02575,-159.34293
Public Safety,Jail,Maui Community Correctional Center,600 Waiale Drive,Wailuku,HI,96793,Maui,Maui,20.87699,-156.49874
Public Safety,Jail,Oahu Community Correctional Center,2199 Kamehameha Highway,Honolulu,HI,96819,Oahu,Honolulu,21.32992,-157.88429
Public Safety,Prison,Halawa Correctional Facility,99-902 Moanalua Road,Aiea,HI,96701,Oahu,Honolulu,21.37341,-157.89929
Public Safety,Prison,Waiawa Correctional Facility,94-560 Kamehameha Highway,Waipahu,HI,96797,Oahu,Honolulu,21.42728,-158.01109
Public Safety,Prison,Kulani Correctional Facility,HC01 Stainback Hwy,Hilo,HI,96720,Hawaii,Hawaii,19.548636,-155.301407
Public Safety,Prison,Women's Community Correctional Center,42-477 Kalanianaole Highway,Kailua,HI,96734,Oahu,Honolulu,21.3775341,-157.7488065
Public Safety,Juvenile Detention Center,Hawaii Youth Correctional Facility,42-470 Kalanianaole Highway,Kanehoe,HI,96734,Oahu,Honolulu,21.37421014,-157.7518867
Public Safety,Juvenile Detention Center,Hale Hoomalu Juvenile Detention Facility,287 Kamokila Blvd,Kapolei,HI,96707,Oahu,Honolulu,21.32608205,-158.0852189
Public Safety,Inmate Support,Laumaka Work Furlough Center (LWFC),647 Laumaka Street,Honolulu,HI,96819,Oahu,Honolulu,21.33176724,-157.8830149
Food Bank,,The Food Basket - Hilo,40 Holomua St,Hilo,HI,96720,Hawaii,Hawaii,19.70456209,-155.0665309
Food Bank,,The Food Basket - Kona,73-4161 Ulu Wini Place,Kailua-Kona,HI,96740,Hawaii,Hawaii,19.68924048,-156.0114311
Food Bank,,Hawaii Foodbank - Oahu,2611 Kilihau St,Honolulu,HI,96819,Oahu,Honolulu,21.33632075,-157.8943229
Food Bank,,Hawaii Foodbank - Kauai,4241 Hanahao Pl Suite 101,Lihue,HI,96766,Kauai,Kauai,21.96157874,-159.3936558
Food Bank,,Hawaii Foodbank - Maui,760 Kolu Street,Wailuku,HI,96793,Maui,Maui,20.90478635,-156.4865667